[
  {
    "name": "NMS Renngasse 20",
    "zip": "1010",
    "city": "Wien",
    "street": "Renngasse",
    "housenumber": "20",
    "addressextra": "extra",
    "private": true,
    "schoolforms": [
      "HTL"
    ],
    "specialisations": [
      "INSY"
    ]
  },
  {
    "name": "AkG Beethovenplatz 1",
    "zip": "1010",
    "city": "Wien",
    "street": "Beethovenplatz",
    "housenumber": "1",
    "addressextra": "extra",
    "private": true,
    "schoolforms": [
      "HTL"
    ],
    "specialisations": [
      "INSY"
    ]
  },
  {
    "name": "pG 1 Freyung 6",
    "zip": "1010",
    "city": "Wien",
    "street": "Freyung",
    "housenumber": "6",
    "addressextra": "extra",
    "private": true,
    "schoolforms": [
      "HTL"
    ],
    "specialisations": [
      "INSY"
    ]
  },
  {
    "name": "Rg 1 Schottenbastei 7-9",
    "zip": "1010",
    "city": "Wien",
    "street": "Schottenbastei",
    "housenumber": "7-9",
    "addressextra": "extra",
    "private": true,
    "schoolforms": [
      "HTL"
    ],
    "specialisations": [
      "INSY"
    ]
  },
  {
    "name": "GRg 1 Stubenbastei 6-8",
    "zip": "1010",
    "city": "Wien",
    "street": "Stubenbastei",
    "housenumber": "6-8",
    "addressextra": "extra",
    "private": true,
    "schoolforms": [
      "HTL"
    ],
    "specialisations": [
      "INSY"
    ]
  },
  {
    "name": "ORg 1\/H 12 Hegelgasse 12",
    "zip": "1010",
    "city": "Wien",
    "street": "Hegelgasse",
    "housenumber": "12",
    "addressextra": "extra",
    "private": true,
    "schoolforms": [
      "HTL"
    ],
    "specialisations": [
      "INSY"
    ]
  },
  {
    "name": "Vienna Business School - Handelsakademie und Handelsschule Akademiestraße der Wiener Kaufmannschaft",
    "zip": "1010",
    "city": "Wien",
    "street": "Akademiestraße",
    "housenumber": "12",
    "addressextra": "extra",
    "private": true,
    "schoolforms": [
      "HTL"
    ],
    "specialisations": [
      "INSY"
    ]
  },
  {
    "name": "Gastgewerbefachschule des Schulvereins der Wiener Gastwirte",
    "zip": "1010",
    "city": "Wien",
    "street": "Judenplatz",
    "housenumber": "3-4",
    "addressextra": "extra",
    "private": true,
    "schoolforms": [
      "HTL"
    ],
    "specialisations": [
      "INSY"
    ]
  },
  {
    "name": "Schauspielschule Krauss",
    "zip": "1010",
    "city": "Wien",
    "street": "Weihburggasse",
    "housenumber": "9",
    "addressextra": "extra",
    "private": true,
    "schoolforms": [
      "HTL"
    ],
    "specialisations": [
      "INSY"
    ]
  },
  {
    "name": "Diözesankonservatorium für Kirchenmusik der Erzdiözese Wien",
    "zip": "1010",
    "city": "Wien",
    "street": "Stock im",
    "housenumber": "Eisen-Platz",
    "addressextra": "extra",
    "private": true,
    "schoolforms": [
      "HTL"
    ],
    "specialisations": [
      "INSY"
    ]
  },
  {
    "name": "RgORg 2 Lessinggasse 8-14",
    "zip": "1010",
    "city": "Wien",
    "street": "Schellinggasse",
    "housenumber": "18",
    "addressextra": "extra",
    "private": true,
    "schoolforms": [
      "HTL"
    ],
    "specialisations": [
      "INSY"
    ]
  },
  {
    "name": "NMS Feuerbachstraße 1",
    "zip": "1020",
    "city": "Wien",
    "street": "Feuerbachstraße",
    "housenumber": "1",
    "addressextra": "extra",
    "private": true,
    "schoolforms": [
      "HTL"
    ],
    "specialisations": [
      "INSY"
    ]
  },
  {
    "name": "GRg 2 Wohlmutstraße 3",
    "zip": "1020",
    "city": "Wien",
    "street": "Wohlmutstraße",
    "housenumber": "3",
    "addressextra": "extra",
    "private": true,
    "schoolforms": [
      "HTL"
    ],
    "specialisations": [
      "INSY"
    ]
  },
  {
    "name": "GRg 2 Zirkusgasse 48",
    "zip": "1020",
    "city": "Wien",
    "street": "Zirkusgasse",
    "housenumber": "48",
    "addressextra": "extra",
    "private": true,
    "schoolforms": [
      "HTL"
    ],
    "specialisations": [
      "INSY"
    ]
  },
  {
    "name": "GRg 2 Kleine Sperlgasse 4",
    "zip": "1020",
    "city": "Wien",
    "street": "Kleine Sperlgasse",
    "housenumber": "2c",
    "addressextra": "extra",
    "private": true,
    "schoolforms": [
      "HTL"
    ],
    "specialisations": [
      "INSY"
    ]
  },
  {
    "name": "NMS Obere Augartenstraße 38",
    "zip": "1020",
    "city": "Wien",
    "street": "Obere Augartenstraße",
    "housenumber": "38",
    "addressextra": "extra",
    "private": true,
    "schoolforms": [
      "HTL"
    ],
    "specialisations": [
      "INSY"
    ]
  },
  {
    "name": "pRg 2 Simon-Wiesenthal-Gasse 3",
    "zip": "1020",
    "city": "Wien",
    "street": "Simon Wiesenthal-Gasse",
    "housenumber": "3",
    "addressextra": "extra",
    "private": true,
    "schoolforms": [
      "HTL"
    ],
    "specialisations": [
      "INSY"
    ]
  },
  {
    "name": "NMS Pazmanitengasse 26",
    "zip": "1020",
    "city": "Wien",
    "street": "Pazmanitengasse",
    "housenumber": "26",
    "addressextra": "extra",
    "private": true,
    "schoolforms": [
      "HTL"
    ],
    "specialisations": [
      "INSY"
    ]
  },
  {
    "name": "FIT - Fachspezifische Schule für individualisierte Teilausbildungen für Jugendliche und junge Erwachsene mit Behinderungen\/Benachteiligungen der ITA gem. GmbH",
    "zip": "1020",
    "city": "Wien",
    "street": "Obere Donaustraße",
    "housenumber": "21",
    "addressextra": "extra",
    "private": true,
    "schoolforms": [
      "HTL"
    ],
    "specialisations": [
      "INSY"
    ]
  },
  {
    "name": "I-FIT - Inklusive Fachspezifische Schule für Individualisierte Teilausbildungen für Jugendliche und junge Erwachsene mit Ausgrenzungsgefährdung und Behinderungen\/Benachteiligungen des Evang.Schulwerks A.B. Wien\"",
    "zip": "1020",
    "city": "Wien",
    "street": "Obere Donaustraße",
    "housenumber": "21",
    "addressextra": "extra",
    "private": true,
    "schoolforms": [
      "HTL"
    ],
    "specialisations": [
      "INSY"
    ]
  },
  {
    "name": "PNMS Obere Augartenstraße 34",
    "zip": "1020",
    "city": "Wien",
    "street": "Obere Augartenstraße",
    "housenumber": "34",
    "addressextra": "extra",
    "private": true,
    "schoolforms": [
      "HTL"
    ],
    "specialisations": [
      "INSY"
    ]
  },
  {
    "name": "pORg 2 Rabbiner-Schneerson-Platz 1",
    "zip": "1020",
    "city": "Wien",
    "street": "Rabbiner-Schneerson-Platz",
    "housenumber": "1",
    "addressextra": "extra",
    "private": true,
    "schoolforms": [
      "HTL"
    ],
    "specialisations": [
      "INSY"
    ]
  },
  {
    "name": "PNMS Malzgasse 16",
    "zip": "1020",
    "city": "Wien",
    "street": "Malzgasse",
    "housenumber": "16",
    "addressextra": "extra",
    "private": true,
    "schoolforms": [
      "HTL"
    ],
    "specialisations": [
      "INSY"
    ]
  },
  {
    "name": "PNMS Rabbiner Schneerson-Platz 1",
    "zip": "1020",
    "city": "Wien",
    "street": "Rabbiner-Schneerson-Platz",
    "housenumber": "1",
    "addressextra": "extra",
    "private": true,
    "schoolforms": [
      "HTL"
    ],
    "specialisations": [
      "INSY"
    ]
  },
  {
    "name": "PNMS Große Stadtgutgasse 24",
    "zip": "1020",
    "city": "Wien",
    "street": "Große Stadtgutgasse",
    "housenumber": "24",
    "addressextra": "extra",
    "private": true,
    "schoolforms": [
      "HTL"
    ],
    "specialisations": [
      "INSY"
    ]
  },
  {
    "name": "Danube International School Vienna",
    "zip": "1020",
    "city": "Wien",
    "street": "Josef-Gall-Gasse",
    "housenumber": "2",
    "addressextra": "extra",
    "private": true,
    "schoolforms": [
      "HTL"
    ],
    "specialisations": [
      "INSY"
    ]
  },
  {
    "name": "JESSODE-Hatara-Schule des Vereins KHAL ISRAEL religiös-orthodoxer Verein",
    "zip": "1020",
    "city": "Wien",
    "street": "Tempelgasse",
    "housenumber": "3",
    "addressextra": "extra",
    "private": true,
    "schoolforms": [
      "HTL"
    ],
    "specialisations": [
      "INSY"
    ]
  },
  {
    "name": "Vienna Business School - Handelsakademie und Handelsschule Augarten der Wiener Kaufmannschaft",
    "zip": "1020",
    "city": "Wien",
    "street": "Untere Augartenstraße",
    "housenumber": "9",
    "addressextra": "extra",
    "private": true,
    "schoolforms": [
      "HTL"
    ],
    "specialisations": [
      "INSY"
    ]
  },
  {
    "name": "Handelsschule des Vereins jüdisches pädagogisches Zentrum",
    "zip": "1020",
    "city": "Wien",
    "street": "Rabbiner Schneerson-Platz",
    "housenumber": "1",
    "addressextra": "extra",
    "private": true,
    "schoolforms": [
      "HTL"
    ],
    "specialisations": [
      "INSY"
    ]
  },
  {
    "name": "Handelsschule am Bundes-Blindeninstitut",
    "zip": "1020",
    "city": "Wien",
    "street": "Wittelsbachstraße",
    "housenumber": "5",
    "addressextra": "extra",
    "private": true,
    "schoolforms": [
      "HTL"
    ],
    "specialisations": [
      "INSY"
    ]
  },
  {
    "name": "Fachschule für jüdische Sozialberufe - Wiener Jeschiwah",
    "zip": "1020",
    "city": "Wien",
    "street": "Große Mohrengasse",
    "housenumber": "19",
    "addressextra": "extra",
    "private": true,
    "schoolforms": [
      "HTL"
    ],
    "specialisations": [
      "INSY"
    ]
  },
  {
    "name": "Jüdische Mädchenfachschule für Kommunikation und Wirtschaft \"Beth-Jakov-Schule\"",
    "zip": "1020",
    "city": "Wien",
    "street": "Große Stadtgutgasse",
    "housenumber": "24",
    "addressextra": "extra",
    "private": true,
    "schoolforms": [
      "HTL"
    ],
    "specialisations": [
      "INSY"
    ]
  },
  {
    "name": "Jehuda Halevi Musikschule des Vereins Jehuda Halevi Zentrum für Kunst und Kultur",
    "zip": "1020",
    "city": "Wien",
    "street": "Haidgasse",
    "housenumber": "1",
    "addressextra": "extra",
    "private": true,
    "schoolforms": [
      "HTL"
    ],
    "specialisations": [
      "INSY"
    ]
  },
  {
    "name": "NMS Max-Winter-Platz 2",
    "zip": "1020",
    "city": "Wien",
    "street": "Max-Winter-Platz",
    "housenumber": "2",
    "addressextra": "extra",
    "private": true,
    "schoolforms": [
      "HTL"
    ],
    "specialisations": [
      "INSY"
    ]
  },
  {
    "name": "pRgORg 2 Obere Augartenstraße 1c",
    "zip": "1020",
    "city": "Wien",
    "street": "Obere Augartenstraße",
    "housenumber": "1c",
    "addressextra": "extra",
    "private": true,
    "schoolforms": [
      "HTL"
    ],
    "specialisations": [
      "INSY"
    ]
  },
  {
    "name": "NMS Wittelsbachstraße 6",
    "zip": "1020",
    "city": "Wien",
    "street": "Wittelsbachstraße",
    "housenumber": "6",
    "addressextra": "extra",
    "private": true,
    "schoolforms": [
      "HTL"
    ],
    "specialisations": [
      "INSY"
    ]
  },
  {
    "name": "WMS Kleine Sperlgasse 2A",
    "zip": "1020",
    "city": "Wien",
    "street": "Kleine Sperlgasse",
    "housenumber": "2A",
    "addressextra": "extra",
    "private": true,
    "schoolforms": [
      "HTL"
    ],
    "specialisations": [
      "INSY"
    ]
  },
  {
    "name": "NMS Dietrichgasse 36",
    "zip": "1030",
    "city": "Wien",
    "street": "Dietrichgasse",
    "housenumber": "36",
    "addressextra": "extra",
    "private": true,
    "schoolforms": [
      "HTL"
    ],
    "specialisations": [
      "INSY"
    ]
  },
  {
    "name": "PTS Maiselgasse 1",
    "zip": "1030",
    "city": "Wien",
    "street": "Maiselgasse",
    "housenumber": "1",
    "addressextra": "extra",
    "private": true,
    "schoolforms": [
      "HTL"
    ],
    "specialisations": [
      "INSY"
    ]
  },
  {
    "name": "ORg 3 Landstraßer Hauptstraße 70",
    "zip": "1030",
    "city": "Wien",
    "street": "Landstraßer Hauptstraße",
    "housenumber": "70",
    "addressextra": "extra",
    "private": true,
    "schoolforms": [
      "HTL"
    ],
    "specialisations": [
      "INSY"
    ]
  },
  {
    "name": "NMS Hainburger Straße 40",
    "zip": "1030",
    "city": "Wien",
    "street": "Hainburger Straße",
    "housenumber": "40",
    "addressextra": "extra",
    "private": true,
    "schoolforms": [
      "HTL"
    ],
    "specialisations": [
      "INSY"
    ]
  },
  {
    "name": "GRg 3 Boerhaavegasse 15",
    "zip": "1030",
    "city": "Wien",
    "street": "Boerhaavegasse",
    "housenumber": "15",
    "addressextra": "extra",
    "private": true,
    "schoolforms": [
      "HTL"
    ],
    "specialisations": [
      "INSY"
    ]
  },
  {
    "name": "NMS Hörnesgasse 12",
    "zip": "1030",
    "city": "Wien",
    "street": "Hörnesgasse",
    "housenumber": "12",
    "addressextra": "extra",
    "private": true,
    "schoolforms": [
      "HTL"
    ],
    "specialisations": [
      "INSY"
    ]
  },
  {
    "name": "pG 3 Rennweg 31",
    "zip": "1030",
    "city": "Wien",
    "street": "Rennweg",
    "housenumber": "31",
    "addressextra": "extra",
    "private": true,
    "schoolforms": [
      "HTL"
    ],
    "specialisations": [
      "INSY"
    ]
  },
  {
    "name": "GRg 3 Kundmanngasse 20-22",
    "zip": "1030",
    "city": "Wien",
    "street": "Kundmanngasse",
    "housenumber": "20-22",
    "addressextra": "extra",
    "private": true,
    "schoolforms": [
      "HTL"
    ],
    "specialisations": [
      "INSY"
    ]
  },
  {
    "name": "GRg 3 Hagenmüllergasse 30",
    "zip": "1030",
    "city": "Wien",
    "street": "Hagenmüllergasse",
    "housenumber": "30",
    "addressextra": "extra",
    "private": true,
    "schoolforms": [
      "HTL"
    ],
    "specialisations": [
      "INSY"
    ]
  },
  {
    "name": "PNMS Erdbergstraße 70",
    "zip": "1030",
    "city": "Wien",
    "street": "Erdbergstraße",
    "housenumber": "70",
    "addressextra": "extra",
    "private": true,
    "schoolforms": [
      "HTL"
    ],
    "specialisations": [
      "INSY"
    ]
  },
  {
    "name": "PNMS Schützengasse 31",
    "zip": "1030",
    "city": "Wien",
    "street": "Schützengasse",
    "housenumber": "31",
    "addressextra": "extra",
    "private": true,
    "schoolforms": [
      "HTL"
    ],
    "specialisations": [
      "INSY"
    ]
  },
  {
    "name": "PNMS Fasangasse 4",
    "zip": "1030",
    "city": "Wien",
    "street": "Fasangasse",
    "housenumber": "4",
    "addressextra": "extra",
    "private": true,
    "schoolforms": [
      "HTL"
    ],
    "specialisations": [
      "INSY"
    ]
  },
  {
    "name": "pRgORg 3 Schützengasse 31",
    "zip": "1030",
    "city": "Wien",
    "street": "Schützengasse",
    "housenumber": "31",
    "addressextra": "extra",
    "private": true,
    "schoolforms": [
      "HTL"
    ],
    "specialisations": [
      "INSY"
    ]
  },
  {
    "name": "ORg 3 Ballsportgymnasium Wien",
    "zip": "1030",
    "city": "Wien",
    "street": "Erdbergstraße",
    "housenumber": "186",
    "addressextra": "extra",
    "private": true,
    "schoolforms": [
      "HTL"
    ],
    "specialisations": [
      "INSY"
    ]
  },
  {
    "name": "Handelsakademie und Handelsschule Marienanstalt - Sacré Coeur der Schulstiftung Erzdiözese Wien",
    "zip": "1030",
    "city": "Wien",
    "street": "Fasangasse",
    "housenumber": "4",
    "addressextra": "extra",
    "private": true,
    "schoolforms": [
      "HTL"
    ],
    "specialisations": [
      "INSY"
    ]
  },
  {
    "name": "Schule für Sozialbetreuungsberufe (WISOZ) der AWZ-Soziales Wien GmbH",
    "zip": "1030",
    "city": "Wien",
    "street": "Schlachthausgasse",
    "housenumber": "37",
    "addressextra": "extra",
    "private": true,
    "schoolforms": [
      "HTL"
    ],
    "specialisations": [
      "INSY"
    ]
  },
  {
    "name": "Höhere Lehranstalt für wirtschaftliche Berufe des Schulvereins der Schulschwestern",
    "zip": "1030",
    "city": "Wien",
    "street": "Erdbergstraße",
    "housenumber": "70",
    "addressextra": "extra",
    "private": true,
    "schoolforms": [
      "HTL"
    ],
    "specialisations": [
      "INSY"
    ]
  },
  {
    "name": "Camillo Sitte Lehranstalt, Höhere Technische Bundeslehr- und Versuchsanstalt",
    "zip": "1030",
    "city": "Wien",
    "street": "Leberstraße",
    "housenumber": "4c",
    "addressextra": "extra",
    "private": true,
    "schoolforms": [
      "HTL"
    ],
    "specialisations": [
      "INSY"
    ]
  },
  {
    "name": "Bundeshandelsakademie und Bundeshandelsschule und Höhere Technische Bundeslehranstalt Schulzentrum Ungargasse Wien 3",
    "zip": "1030",
    "city": "Wien",
    "street": "Ungargasse",
    "housenumber": "69",
    "addressextra": "extra",
    "private": true,
    "schoolforms": [
      "HTL"
    ],
    "specialisations": [
      "INSY"
    ]
  },
  {
    "name": "Bundeshandelsakademie und Bundeshandelsschule und Höhere Technische Bundeslehranstalt Schulzentrum Ungargasse Wien 3",
    "zip": "1030",
    "city": "Wien",
    "street": "Ungargasse",
    "housenumber": "69",
    "addressextra": "extra",
    "private": true,
    "schoolforms": [
      "HTL"
    ],
    "specialisations": [
      "INSY"
    ]
  },
  {
    "name": "Höhere Technische Bundeslehranstalt Wien 3 Rennweg",
    "zip": "1030",
    "city": "Wien",
    "street": "Rennweg",
    "housenumber": "89b",
    "addressextra": "extra",
    "private": true,
    "schoolforms": [
      "HTL"
    ],
    "specialisations": [
      "INSY"
    ]
  },
  {
    "name": "BSH Bundesschüler\/innen-Wohnheim Juchgasse",
    "zip": "1030",
    "city": "Wien",
    "street": "Juchgasse",
    "housenumber": "27",
    "addressextra": "extra",
    "private": true,
    "schoolforms": [
      "HTL"
    ],
    "specialisations": [
      "INSY"
    ]
  },
  {
    "name": "GRg 3 Radetzkystraße 2A",
    "zip": "1030",
    "city": "Wien",
    "street": "Radetzkystraße",
    "housenumber": "2A",
    "addressextra": "extra",
    "private": true,
    "schoolforms": [
      "HTL"
    ],
    "specialisations": [
      "INSY"
    ]
  },
  {
    "name": "NMS Kölblgasse 23",
    "zip": "1030",
    "city": "Wien",
    "street": "Kölblgasse",
    "housenumber": "23",
    "addressextra": "extra",
    "private": true,
    "schoolforms": [
      "HTL"
    ],
    "specialisations": [
      "INSY"
    ]
  },
  {
    "name": "GTNMS Schäffergasse 3",
    "zip": "1040",
    "city": "Wien",
    "street": "Schäffergasse",
    "housenumber": "3",
    "addressextra": "extra",
    "private": true,
    "schoolforms": [
      "HTL"
    ],
    "specialisations": [
      "INSY"
    ]
  },
  {
    "name": "PPTS Karlsplatz 14",
    "zip": "1040",
    "city": "Wien",
    "street": "Karlsplatz",
    "housenumber": "14",
    "addressextra": "extra",
    "private": true,
    "schoolforms": [
      "HTL"
    ],
    "specialisations": [
      "INSY"
    ]
  },
  {
    "name": "Rg 4 Waltergasse 7",
    "zip": "1040",
    "city": "Wien",
    "street": "Waltergasse",
    "housenumber": "7",
    "addressextra": "extra",
    "private": true,
    "schoolforms": [
      "HTL"
    ],
    "specialisations": [
      "INSY"
    ]
  },
  {
    "name": "PWMS Karlsplatz 14",
    "zip": "1040",
    "city": "Wien",
    "street": "Karlsplatz",
    "housenumber": "14",
    "addressextra": "extra",
    "private": true,
    "schoolforms": [
      "HTL"
    ],
    "specialisations": [
      "INSY"
    ]
  },
  {
    "name": "GRg 4 Wiedner Gürtel 68",
    "zip": "1040",
    "city": "Wien",
    "street": "Wiedner Gürtel",
    "housenumber": "68",
    "addressextra": "extra",
    "private": true,
    "schoolforms": [
      "HTL"
    ],
    "specialisations": [
      "INSY"
    ]
  },
  {
    "name": "Technisch-Gewerbliche Abendschule des bfi Wien - Werkmeisterschule",
    "zip": "1040",
    "city": "Wien",
    "street": "Plößlgasse",
    "housenumber": "13",
    "addressextra": "extra",
    "private": true,
    "schoolforms": [
      "HTL"
    ],
    "specialisations": [
      "INSY"
    ]
  },
  {
    "name": "Prayner Konservatorium des Herrn Mag. Josef Schmid",
    "zip": "1040",
    "city": "Wien",
    "street": "Mühlgasse",
    "housenumber": "28-30",
    "addressextra": "extra",
    "private": true,
    "schoolforms": [
      "HTL"
    ],
    "specialisations": [
      "INSY"
    ]
  },
  {
    "name": "pG 4 Favoritenstraße 15",
    "zip": "1040",
    "city": "Wien",
    "street": "Favoritenstraße",
    "housenumber": "15",
    "addressextra": "extra",
    "private": true,
    "schoolforms": [
      "HTL"
    ],
    "specialisations": [
      "INSY"
    ]
  },
  {
    "name": "Bundeshandelsakademie und Bundeshandelsschule Wien 12 - International Business College Hetzendorf",
    "zip": "1050",
    "city": "Wien",
    "street": "Kriehubergasse",
    "housenumber": "24-26",
    "addressextra": "extra",
    "private": true,
    "schoolforms": [
      "HTL"
    ],
    "specialisations": [
      "INSY"
    ]
  },
  {
    "name": "GRg 5 Reinprechtsdorfer Straße 24",
    "zip": "1050",
    "city": "Wien",
    "street": "Reinprechtsdorfer Straße",
    "housenumber": "24",
    "addressextra": "extra",
    "private": true,
    "schoolforms": [
      "HTL"
    ],
    "specialisations": [
      "INSY"
    ]
  },
  {
    "name": "NMS Gassergasse 44",
    "zip": "1050",
    "city": "Wien",
    "street": "Gassergasse",
    "housenumber": "44",
    "addressextra": "extra",
    "private": true,
    "schoolforms": [
      "HTL"
    ],
    "specialisations": [
      "INSY"
    ]
  },
  {
    "name": "Berufsschule für Verwaltungsberufe",
    "zip": "1050",
    "city": "Wien",
    "street": "Embelgasse",
    "housenumber": "46",
    "addressextra": "extra",
    "private": true,
    "schoolforms": [
      "HTL"
    ],
    "specialisations": [
      "INSY"
    ]
  },
  {
    "name": "GRg 5 Rainergasse 39",
    "zip": "1050",
    "city": "Wien",
    "street": "Rainergasse",
    "housenumber": "39",
    "addressextra": "extra",
    "private": true,
    "schoolforms": [
      "HTL"
    ],
    "specialisations": [
      "INSY"
    ]
  },
  {
    "name": "NMS Viktor-Christ-Gasse 24",
    "zip": "1050",
    "city": "Wien",
    "street": "Viktor-Christ-Gasse",
    "housenumber": "24",
    "addressextra": "extra",
    "private": true,
    "schoolforms": [
      "HTL"
    ],
    "specialisations": [
      "INSY"
    ]
  },
  {
    "name": "Höhere Bundeslehr- und Versuchsanstalt für Textilindustrie und Informatik",
    "zip": "1050",
    "city": "Wien",
    "street": "Spengergasse",
    "housenumber": "20",
    "addressextra": "extra",
    "private": true,
    "schoolforms": [
      "HTL"
    ],
    "specialisations": [
      "INSY"
    ]
  },
  {
    "name": "Schulen des BFI Wien",
    "zip": "1050",
    "city": "Wien",
    "street": "Margaretenstraße",
    "housenumber": "65",
    "addressextra": "extra",
    "private": true,
    "schoolforms": [
      "HTL"
    ],
    "specialisations": [
      "INSY"
    ]
  },
  {
    "name": "PNMS Liniengasse 21",
    "zip": "1060",
    "city": "Wien",
    "street": "Liniengasse",
    "housenumber": "21",
    "addressextra": "extra",
    "private": true,
    "schoolforms": [
      "HTL"
    ],
    "specialisations": [
      "INSY"
    ]
  },
  {
    "name": "GRg 6 Amerlingstraße 6",
    "zip": "1060",
    "city": "Wien",
    "street": "Amerlingstraße",
    "housenumber": "6",
    "addressextra": "extra",
    "private": true,
    "schoolforms": [
      "HTL"
    ],
    "specialisations": [
      "INSY"
    ]
  },
  {
    "name": "Berufsschule für Elektrotechnik und Mechatronik",
    "zip": "1060",
    "city": "Wien",
    "street": "Mollardgasse",
    "housenumber": "87",
    "addressextra": "extra",
    "private": true,
    "schoolforms": [
      "HTL"
    ],
    "specialisations": [
      "INSY"
    ]
  },
  {
    "name": "Berufsschule für Sanitär-, Heizungs- und Klimatechnik",
    "zip": "1060",
    "city": "Wien",
    "street": "Mollardgasse",
    "housenumber": "87",
    "addressextra": "extra",
    "private": true,
    "schoolforms": [
      "HTL"
    ],
    "specialisations": [
      "INSY"
    ]
  },
  {
    "name": "Berufsschule für Metalltechnik, Glasbautechnik und Technische Zeichner",
    "zip": "1060",
    "city": "Wien",
    "street": "Mollardgasse",
    "housenumber": "87",
    "addressextra": "extra",
    "private": true,
    "schoolforms": [
      "HTL"
    ],
    "specialisations": [
      "INSY"
    ]
  },
  {
    "name": "Berufsschule für Elektro-, Veranstaltungs- und Informationstechnik Austria",
    "zip": "1060",
    "city": "Wien",
    "street": "Mollardgasse",
    "housenumber": "87",
    "addressextra": "extra",
    "private": true,
    "schoolforms": [
      "HTL"
    ],
    "specialisations": [
      "INSY"
    ]
  },
  {
    "name": "WMS Loquaiplatz 4",
    "zip": "1060",
    "city": "Wien",
    "street": "Loquaiplatz",
    "housenumber": "4",
    "addressextra": "extra",
    "private": true,
    "schoolforms": [
      "HTL"
    ],
    "specialisations": [
      "INSY"
    ]
  },
  {
    "name": "Rg 6 Marchettigasse 3",
    "zip": "1060",
    "city": "Wien",
    "street": "Marchettigasse",
    "housenumber": "3",
    "addressextra": "extra",
    "private": true,
    "schoolforms": [
      "HTL"
    ],
    "specialisations": [
      "INSY"
    ]
  },
  {
    "name": "NMS Neubaugasse 42",
    "zip": "1070",
    "city": "Wien",
    "street": "Neubaugasse",
    "housenumber": "42",
    "addressextra": "extra",
    "private": true,
    "schoolforms": [
      "HTL"
    ],
    "specialisations": [
      "INSY"
    ]
  },
  {
    "name": "PPTS Kenyongasse 4-12",
    "zip": "1070",
    "city": "Wien",
    "street": "Kenyongasse",
    "housenumber": "4-12",
    "addressextra": "extra",
    "private": true,
    "schoolforms": [
      "HTL"
    ],
    "specialisations": [
      "INSY"
    ]
  },
  {
    "name": "PTS Burggasse 14-16",
    "zip": "1070",
    "city": "Wien",
    "street": "Burggasse",
    "housenumber": "14-16",
    "addressextra": "extra",
    "private": true,
    "schoolforms": [
      "HTL"
    ],
    "specialisations": [
      "INSY"
    ]
  },
  {
    "name": "Berufsschule für Maschinen-, Fertigungstechnik und Elektronik",
    "zip": "1070",
    "city": "Wien",
    "street": "Apollogasse",
    "housenumber": "1",
    "addressextra": "extra",
    "private": true,
    "schoolforms": [
      "HTL"
    ],
    "specialisations": [
      "INSY"
    ]
  },
  {
    "name": "GRg 7 Kandlgasse 39",
    "zip": "1070",
    "city": "Wien",
    "street": "Kandlgasse",
    "housenumber": "39",
    "addressextra": "extra",
    "private": true,
    "schoolforms": [
      "HTL"
    ],
    "specialisations": [
      "INSY"
    ]
  },
  {
    "name": "pGRg 7 Kenyongasse 4-12",
    "zip": "1070",
    "city": "Wien",
    "street": "Kenyongasse",
    "housenumber": "4-12",
    "addressextra": "extra",
    "private": true,
    "schoolforms": [
      "HTL"
    ],
    "specialisations": [
      "INSY"
    ]
  },
  {
    "name": "PNMS Kenyongasse 4-12",
    "zip": "1070",
    "city": "Wien",
    "street": "Kenyongasse",
    "housenumber": "4-12",
    "addressextra": "extra",
    "private": true,
    "schoolforms": [
      "HTL"
    ],
    "specialisations": [
      "INSY"
    ]
  },
  {
    "name": "RgORg 7 Neustiftgasse 95-99",
    "zip": "1070",
    "city": "Wien",
    "street": "Neustiftgasse",
    "housenumber": "95-99",
    "addressextra": "extra",
    "private": true,
    "schoolforms": [
      "HTL"
    ],
    "specialisations": [
      "INSY"
    ]
  },
  {
    "name": "Islamische Fachschule für soziale Bildung - Dr. A.K. Hammerschmidt der Islamischen Religionsgemeinde Wien",
    "zip": "1070",
    "city": "Wien",
    "street": "Neustiftgasse",
    "housenumber": "117",
    "addressextra": "extra",
    "private": true,
    "schoolforms": [
      "HTL"
    ],
    "specialisations": [
      "INSY"
    ]
  },
  {
    "name": "Konservatorium Sunrise_Studios des Herrn Mike Loewenrosen",
    "zip": "1070",
    "city": "Wien",
    "street": "Neubaugasse",
    "housenumber": "38",
    "addressextra": "extra",
    "private": true,
    "schoolforms": [
      "HTL"
    ],
    "specialisations": [
      "INSY"
    ]
  },
  {
    "name": "Private Bildungsanstalt für Sozialpädagogik - Kolleg für Sozialpädagogik für Berufstätige der MERA Bildungsholding GmbH Schottenfeldgasse 69",
    "zip": "1070",
    "city": "Wien",
    "street": "Schottenfeldgasse",
    "housenumber": "69",
    "addressextra": "extra",
    "private": true,
    "schoolforms": [
      "HTL"
    ],
    "specialisations": [
      "INSY"
    ]
  },
  {
    "name": "BAFEP 7 Kenyongasse 4-12",
    "zip": "1070",
    "city": "Wien",
    "street": "Kenyongasse",
    "housenumber": "4-12",
    "addressextra": "extra",
    "private": true,
    "schoolforms": [
      "HTL"
    ],
    "specialisations": [
      "INSY"
    ]
  },
  {
    "name": "NMS Neustiftgasse 98-102",
    "zip": "1070",
    "city": "Wien",
    "street": "Neustiftgasse",
    "housenumber": "98-102",
    "addressextra": "extra",
    "private": true,
    "schoolforms": [
      "HTL"
    ],
    "specialisations": [
      "INSY"
    ]
  },
  {
    "name": "GRg 8 Albertgasse 18-22",
    "zip": "1080",
    "city": "Wien",
    "street": "Albertgasse",
    "housenumber": "18-22",
    "addressextra": "extra",
    "private": true,
    "schoolforms": [
      "HTL"
    ],
    "specialisations": [
      "INSY"
    ]
  },
  {
    "name": "Rg 8 Feldgasse 6-8",
    "zip": "1080",
    "city": "Wien",
    "street": "Feldgasse",
    "housenumber": "6-8",
    "addressextra": "extra",
    "private": true,
    "schoolforms": [
      "HTL"
    ],
    "specialisations": [
      "INSY"
    ]
  },
  {
    "name": "Vienna Business School -  Handelsakademie und Handelsschule Hamerlingplatz der Wiener Kaufmannschaft",
    "zip": "1080",
    "city": "Wien",
    "street": "Hamerlingplatz",
    "housenumber": "5-6",
    "addressextra": "extra",
    "private": true,
    "schoolforms": [
      "HTL"
    ],
    "specialisations": [
      "INSY"
    ]
  },
  {
    "name": "Vienna Business School -  Handelsakademie und Handelsschule Schönborngasse der Wiener Kaufmannschaft",
    "zip": "1080",
    "city": "Wien",
    "street": "Schönborngasse",
    "housenumber": "3-5",
    "addressextra": "extra",
    "private": true,
    "schoolforms": [
      "HTL"
    ],
    "specialisations": [
      "INSY"
    ]
  },
  {
    "name": "BAFEP 8 Lange Gasse 47 + Albertgasse 38",
    "zip": "1080",
    "city": "Wien",
    "street": "Lange Gasse",
    "housenumber": "47",
    "addressextra": "extra",
    "private": true,
    "schoolforms": [
      "HTL"
    ],
    "specialisations": [
      "INSY"
    ]
  },
  {
    "name": "Private \"Bildungsanstalt für Sozialpädagogik - Kolleg für Berufstätige\" des Vereins die \"bildungsakademie, Verein für Durchlässigkeit und soziale Gerechtigkeit in der Bildung",
    "zip": "1080",
    "city": "Wien",
    "street": "Pfeilgasse 10-12\/R",
    "housenumber": "04",
    "addressextra": "extra",
    "private": true,
    "schoolforms": [
      "HTL"
    ],
    "specialisations": [
      "INSY"
    ]
  },
  {
    "name": "NMS Pfeilgasse 42b",
    "zip": "1080",
    "city": "Wien",
    "street": "Pfeilgasse",
    "housenumber": "42b",
    "addressextra": "extra",
    "private": true,
    "schoolforms": [
      "HTL"
    ],
    "specialisations": [
      "INSY"
    ]
  },
  {
    "name": "G 8 Jodok-Fink-Platz 2",
    "zip": "1080",
    "city": "Wien",
    "street": "Jodok-Fink-Platz",
    "housenumber": "2",
    "addressextra": "extra",
    "private": true,
    "schoolforms": [
      "HTL"
    ],
    "specialisations": [
      "INSY"
    ]
  },
  {
    "name": "GRg 9 Wasagasse 10",
    "zip": "1090",
    "city": "Wien",
    "street": "Wasagasse",
    "housenumber": "10",
    "addressextra": "extra",
    "private": true,
    "schoolforms": [
      "HTL"
    ],
    "specialisations": [
      "INSY"
    ]
  },
  {
    "name": "Rg 9 Glasergasse 25",
    "zip": "1090",
    "city": "Wien",
    "street": "Glasergasse",
    "housenumber": "25",
    "addressextra": "extra",
    "private": true,
    "schoolforms": [
      "HTL"
    ],
    "specialisations": [
      "INSY"
    ]
  },
  {
    "name": "PNMS Währinger Straße 59",
    "zip": "1090",
    "city": "Wien",
    "street": "Währinger Straße",
    "housenumber": "59",
    "addressextra": "extra",
    "private": true,
    "schoolforms": [
      "HTL"
    ],
    "specialisations": [
      "INSY"
    ]
  },
  {
    "name": "Lycée Liechtensteinstraße 37a Francais de Vienne",
    "zip": "1090",
    "city": "Wien",
    "street": "Liechtensteinstraße",
    "housenumber": "37a",
    "addressextra": "extra",
    "private": true,
    "schoolforms": [
      "HTL"
    ],
    "specialisations": [
      "INSY"
    ]
  },
  {
    "name": "Höhere Bundeslehranstalt für Mode und für wirtschaftliche Berufe Wien 9",
    "zip": "1090",
    "city": "Wien",
    "street": "Michelbeuerngasse",
    "housenumber": "12",
    "addressextra": "extra",
    "private": true,
    "schoolforms": [
      "HTL"
    ],
    "specialisations": [
      "INSY"
    ]
  },
  {
    "name": "Caritas Ausbildungszentrum für Sozialberufe",
    "zip": "1090",
    "city": "Wien",
    "street": "Seegasse",
    "housenumber": "30",
    "addressextra": "extra",
    "private": true,
    "schoolforms": [
      "HTL"
    ],
    "specialisations": [
      "INSY"
    ]
  },
  {
    "name": "Wiener Kunstschule",
    "zip": "1090",
    "city": "Wien",
    "street": "Lazarettgasse",
    "housenumber": "27",
    "addressextra": "extra",
    "private": true,
    "schoolforms": [
      "HTL"
    ],
    "specialisations": [
      "INSY"
    ]
  },
  {
    "name": "NMS Glasergasse 8",
    "zip": "1090",
    "city": "Wien",
    "street": "Glasergasse",
    "housenumber": "8",
    "addressextra": "extra",
    "private": true,
    "schoolforms": [
      "HTL"
    ],
    "specialisations": [
      "INSY"
    ]
  },
  {
    "name": "GRG 10 Ettenreichgasse 41-43",
    "zip": "1100",
    "city": "Wien",
    "street": "Ettenreichgasse",
    "housenumber": "41-43",
    "addressextra": "extra",
    "private": true,
    "schoolforms": [
      "HTL"
    ],
    "specialisations": [
      "INSY"
    ]
  },
  {
    "name": "NMS Georg-Wilhelm-Pabst-Gasse 2a",
    "zip": "1100",
    "city": "Wien",
    "street": "Georg-Wilhelm-Pabst-Gasse",
    "housenumber": "2a",
    "addressextra": "extra",
    "private": true,
    "schoolforms": [
      "HTL"
    ],
    "specialisations": [
      "INSY"
    ]
  },
  {
    "name": "pGRg 10 Ludwig-von-Höhnel-Gasse 17-19",
    "zip": "1100",
    "city": "Wien",
    "street": "Ludwig-von-Höhnel-Gasse",
    "housenumber": "17-19",
    "addressextra": "extra",
    "private": true,
    "schoolforms": [
      "HTL"
    ],
    "specialisations": [
      "INSY"
    ]
  },
  {
    "name": "Praxis-MS Grenzackerstraße 18",
    "zip": "1100",
    "city": "Wien",
    "street": "Grenzackerstraße",
    "housenumber": "18",
    "addressextra": "extra",
    "private": true,
    "schoolforms": [
      "HTL"
    ],
    "specialisations": [
      "INSY"
    ]
  },
  {
    "name": "PTS Pernerstorfergasse 30-32",
    "zip": "1100",
    "city": "Wien",
    "street": "Pernerstorfergasse",
    "housenumber": "30-32",
    "addressextra": "extra",
    "private": true,
    "schoolforms": [
      "HTL"
    ],
    "specialisations": [
      "INSY"
    ]
  },
  {
    "name": "GRg 10 Laaer Berg-Straße 25-29",
    "zip": "1100",
    "city": "Wien",
    "street": "Laaer Berg-Straße",
    "housenumber": "25-29",
    "addressextra": "extra",
    "private": true,
    "schoolforms": [
      "HTL"
    ],
    "specialisations": [
      "INSY"
    ]
  },
  {
    "name": "NMS Herzgasse 27",
    "zip": "1100",
    "city": "Wien",
    "street": "Herzgasse",
    "housenumber": "27",
    "addressextra": "extra",
    "private": true,
    "schoolforms": [
      "HTL"
    ],
    "specialisations": [
      "INSY"
    ]
  },
  {
    "name": "GRg 10 Pichelmayergasse 1",
    "zip": "1100",
    "city": "Wien",
    "street": "Pichelmayergasse",
    "housenumber": "1",
    "addressextra": "extra",
    "private": true,
    "schoolforms": [
      "HTL"
    ],
    "specialisations": [
      "INSY"
    ]
  },
  {
    "name": "NMS Leibnizgasse 33",
    "zip": "1100",
    "city": "Wien",
    "street": "Leibnizgasse",
    "housenumber": "33",
    "addressextra": "extra",
    "private": true,
    "schoolforms": [
      "HTL"
    ],
    "specialisations": [
      "INSY"
    ]
  },
  {
    "name": "PNMS Ludwig v. Höhnel-Gasse 17-19",
    "zip": "1100",
    "city": "Wien",
    "street": "Ludwig-von-Höhnel-Gasse",
    "housenumber": "17-19",
    "addressextra": "extra",
    "private": true,
    "schoolforms": [
      "HTL"
    ],
    "specialisations": [
      "INSY"
    ]
  },
  {
    "name": "NMS Gudrunstraße 110",
    "zip": "1100",
    "city": "Wien",
    "street": "Gudrunstraße",
    "housenumber": "110",
    "addressextra": "extra",
    "private": true,
    "schoolforms": [
      "HTL"
    ],
    "specialisations": [
      "INSY"
    ]
  },
  {
    "name": "NMS Quellenstraße 144",
    "zip": "1100",
    "city": "Wien",
    "street": "Quellenstraße",
    "housenumber": "144",
    "addressextra": "extra",
    "private": true,
    "schoolforms": [
      "HTL"
    ],
    "specialisations": [
      "INSY"
    ]
  },
  {
    "name": "Mayflower Christian Academy - Primar des Vereins MCA",
    "zip": "1100",
    "city": "Wien",
    "street": "Fontanastraße",
    "housenumber": "8",
    "addressextra": "extra",
    "private": true,
    "schoolforms": [
      "HTL"
    ],
    "specialisations": [
      "INSY"
    ]
  },
  {
    "name": "PVS Maria Lassnig-Straße 32\/1",
    "zip": "1100",
    "city": "Wien",
    "street": "Maria Lassnig-Straße",
    "housenumber": "32\/1",
    "addressextra": "extra",
    "private": true,
    "schoolforms": [
      "HTL"
    ],
    "specialisations": [
      "INSY"
    ]
  },
  {
    "name": "Höhere Technische Bundeslehranstalt Wien 10",
    "zip": "1100",
    "city": "Wien",
    "street": "Ettenreichgasse",
    "housenumber": "54",
    "addressextra": "extra",
    "private": true,
    "schoolforms": [
      "HTL"
    ],
    "specialisations": [
      "INSY"
    ]
  },
  {
    "name": "Bundeshandelsakademie und Bundeshandelsschule Wien 10",
    "zip": "1100",
    "city": "Wien",
    "street": "Pernerstorfergasse",
    "housenumber": "77",
    "addressextra": "extra",
    "private": true,
    "schoolforms": [
      "HTL"
    ],
    "specialisations": [
      "INSY"
    ]
  },
  {
    "name": "Höhere Bundeslehranstalt für wirtschaftliche Berufe Wien 10",
    "zip": "1100",
    "city": "Wien",
    "street": "Reumannplatz",
    "housenumber": "3",
    "addressextra": "extra",
    "private": true,
    "schoolforms": [
      "HTL"
    ],
    "specialisations": [
      "INSY"
    ]
  },
  {
    "name": "Schule für Sozialbetreuungsberufe",
    "zip": "1100",
    "city": "Wien",
    "street": "Absberggasse",
    "housenumber": "27",
    "addressextra": "extra",
    "private": true,
    "schoolforms": [
      "HTL"
    ],
    "specialisations": [
      "INSY"
    ]
  },
  {
    "name": "BAFEP 10 Ettenreichgasse 45c",
    "zip": "1100",
    "city": "Wien",
    "street": "Ettenreichgasse",
    "housenumber": "45c",
    "addressextra": "extra",
    "private": true,
    "schoolforms": [
      "HTL"
    ],
    "specialisations": [
      "INSY"
    ]
  },
  {
    "name": "NMS Wendstattgasse 3",
    "zip": "1100",
    "city": "Wien",
    "street": "Wendstattgasse",
    "housenumber": "3",
    "addressextra": "extra",
    "private": true,
    "schoolforms": [
      "HTL"
    ],
    "specialisations": [
      "INSY"
    ]
  },
  {
    "name": "NMS Wendstattgasse 5\/I",
    "zip": "1100",
    "city": "Wien",
    "street": "Wendstattgasse",
    "housenumber": "5\/I",
    "addressextra": "extra",
    "private": true,
    "schoolforms": [
      "HTL"
    ],
    "specialisations": [
      "INSY"
    ]
  },
  {
    "name": "NMS Absberggasse 50",
    "zip": "1100",
    "city": "Wien",
    "street": "Absberggasse",
    "housenumber": "50",
    "addressextra": "extra",
    "private": true,
    "schoolforms": [
      "HTL"
    ],
    "specialisations": [
      "INSY"
    ]
  },
  {
    "name": "NMS Knöllgasse 61",
    "zip": "1100",
    "city": "Wien",
    "street": "Knöllgasse",
    "housenumber": "61",
    "addressextra": "extra",
    "private": true,
    "schoolforms": [
      "HTL"
    ],
    "specialisations": [
      "INSY"
    ]
  },
  {
    "name": "NMS Wendstattgasse 5\/II",
    "zip": "1100",
    "city": "Wien",
    "street": "Wendstattgasse",
    "housenumber": "5\/II",
    "addressextra": "extra",
    "private": true,
    "schoolforms": [
      "HTL"
    ],
    "specialisations": [
      "INSY"
    ]
  },
  {
    "name": "Phönix Realgymnasium Knöllgasse 20 - 24",
    "zip": "1100",
    "city": "Wien",
    "street": "Knöllgasse",
    "housenumber": "20",
    "addressextra": "extra",
    "private": true,
    "schoolforms": [
      "HTL"
    ],
    "specialisations": [
      "INSY"
    ]
  },
  {
    "name": "NMS Josef-Enslein-Platz 1-3",
    "zip": "1100",
    "city": "Wien",
    "street": "Josef-Enslein-Platz",
    "housenumber": "1-3",
    "addressextra": "extra",
    "private": true,
    "schoolforms": [
      "HTL"
    ],
    "specialisations": [
      "INSY"
    ]
  },
  {
    "name": "NMS Enkplatz 4\/II",
    "zip": "1110",
    "city": "Wien",
    "street": "Enkplatz",
    "housenumber": "4\/II",
    "addressextra": "extra",
    "private": true,
    "schoolforms": [
      "HTL"
    ],
    "specialisations": [
      "INSY"
    ]
  },
  {
    "name": "GRg 11 Gottschalkgasse 21",
    "zip": "1110",
    "city": "Wien",
    "street": "Gottschalkgasse",
    "housenumber": "21",
    "addressextra": "extra",
    "private": true,
    "schoolforms": [
      "HTL"
    ],
    "specialisations": [
      "INSY"
    ]
  },
  {
    "name": "GRg 11 Geringergasse 2",
    "zip": "1110",
    "city": "Wien",
    "street": "Geringergasse",
    "housenumber": "2",
    "addressextra": "extra",
    "private": true,
    "schoolforms": [
      "HTL"
    ],
    "specialisations": [
      "INSY"
    ]
  },
  {
    "name": "NMS Rzehakgasse 7",
    "zip": "1110",
    "city": "Wien",
    "street": "Rzehakgasse",
    "housenumber": "7",
    "addressextra": "extra",
    "private": true,
    "schoolforms": [
      "HTL"
    ],
    "specialisations": [
      "INSY"
    ]
  },
  {
    "name": "pGRg 11 Erdbergstraße 222 A",
    "zip": "1110",
    "city": "Wien",
    "street": "Erdbergstraße 222",
    "housenumber": "A",
    "addressextra": "extra",
    "private": true,
    "schoolforms": [
      "HTL"
    ],
    "specialisations": [
      "INSY"
    ]
  },
  {
    "name": "NMS Hasenleitengasse 7",
    "zip": "1110",
    "city": "Wien",
    "street": "Hasenleitengasse",
    "housenumber": "7",
    "addressextra": "extra",
    "private": true,
    "schoolforms": [
      "HTL"
    ],
    "specialisations": [
      "INSY"
    ]
  },
  {
    "name": "Bundeshandelsakademie und Bundeshandelsschule Wien 11",
    "zip": "1110",
    "city": "Wien",
    "street": "Geringergasse",
    "housenumber": "2",
    "addressextra": "extra",
    "private": true,
    "schoolforms": [
      "HTL"
    ],
    "specialisations": [
      "INSY"
    ]
  },
  {
    "name": "Konservatorium JAM MUSIC LAB \" International Academy of Music and Performing Arts Vienna\" der Jam Music Lab GmbH",
    "zip": "1110",
    "city": "Wien",
    "street": "Guglgasse 8",
    "housenumber": "Gasometer",
    "addressextra": "extra",
    "private": true,
    "schoolforms": [
      "HTL"
    ],
    "specialisations": [
      "INSY"
    ]
  },
  {
    "name": "Johann Sebastian Bach Musikschule des Evangelischen Schulwerk A.B. Wien",
    "zip": "1110",
    "city": "Wien",
    "street": "Guglgasse",
    "housenumber": "8-12",
    "addressextra": "extra",
    "private": true,
    "schoolforms": [
      "HTL"
    ],
    "specialisations": [
      "INSY"
    ]
  },
  {
    "name": "NMS Florian-Hedorferstraße 22",
    "zip": "1110",
    "city": "Wien",
    "street": "Florian-Hedorfer-Straße",
    "housenumber": "22",
    "addressextra": "extra",
    "private": true,
    "schoolforms": [
      "HTL"
    ],
    "specialisations": [
      "INSY"
    ]
  },
  {
    "name": "NMS Pachmayergasse 6",
    "zip": "1110",
    "city": "Wien",
    "street": "Pachmayergasse",
    "housenumber": "6",
    "addressextra": "extra",
    "private": true,
    "schoolforms": [
      "HTL"
    ],
    "specialisations": [
      "INSY"
    ]
  },
  {
    "name": "NMS Enkplatz 4\/I",
    "zip": "1110",
    "city": "Wien",
    "street": "Enkplatz",
    "housenumber": "4\/I",
    "addressextra": "extra",
    "private": true,
    "schoolforms": [
      "HTL"
    ],
    "specialisations": [
      "INSY"
    ]
  },
  {
    "name": "NMS Svetelskystraße 4-6",
    "zip": "1110",
    "city": "Wien",
    "street": "Svetelskystraße",
    "housenumber": "4-6",
    "addressextra": "extra",
    "private": true,
    "schoolforms": [
      "HTL"
    ],
    "specialisations": [
      "INSY"
    ]
  },
  {
    "name": "Isma Private Gesamtschule Muhammad Asad Reschgasse 20-22",
    "zip": "1120",
    "city": "Wien",
    "street": "Reschgasse",
    "housenumber": "20-22",
    "addressextra": "extra",
    "private": true,
    "schoolforms": [
      "HTL"
    ],
    "specialisations": [
      "INSY"
    ]
  },
  {
    "name": "Fachschule der Stadt Wien für wirtschaftliche Berufe",
    "zip": "1120",
    "city": "Wien",
    "street": "Dörfelstraße",
    "housenumber": "1",
    "addressextra": "extra",
    "private": true,
    "schoolforms": [
      "HTL"
    ],
    "specialisations": [
      "INSY"
    ]
  },
  {
    "name": "Modeschule der Stadt Wien im Schloss Hetzendorf",
    "zip": "1120",
    "city": "Wien",
    "street": "Hetzendorfer Straße",
    "housenumber": "79",
    "addressextra": "extra",
    "private": true,
    "schoolforms": [
      "HTL"
    ],
    "specialisations": [
      "INSY"
    ]
  },
  {
    "name": "Richard Wagner Konservatorium des Herrn Mirza Kapetanovic",
    "zip": "1120",
    "city": "Wien",
    "street": "Wienerbergstraße",
    "housenumber": "28\/EG",
    "addressextra": "extra",
    "private": true,
    "schoolforms": [
      "HTL"
    ],
    "specialisations": [
      "INSY"
    ]
  },
  {
    "name": "BAFEP 12 Private Bundesbildungsanstalt für Elementarpädagogik",
    "zip": "1120",
    "city": "Wien",
    "street": "Reschgasse",
    "housenumber": "20-22",
    "addressextra": "extra",
    "private": true,
    "schoolforms": [
      "HTL"
    ],
    "specialisations": [
      "INSY"
    ]
  },
  {
    "name": "NMS Herthergasse 28",
    "zip": "1120",
    "city": "Wien",
    "street": "Herthergasse",
    "housenumber": "28",
    "addressextra": "extra",
    "private": true,
    "schoolforms": [
      "HTL"
    ],
    "specialisations": [
      "INSY"
    ]
  },
  {
    "name": "Berufsschule für Lebensmittel, Touristik und Zahntechnik",
    "zip": "1120",
    "city": "Wien",
    "street": "Längenfeldgasse",
    "housenumber": "13-15",
    "addressextra": "extra",
    "private": true,
    "schoolforms": [
      "HTL"
    ],
    "specialisations": [
      "INSY"
    ]
  },
  {
    "name": "GRg 12 Rosasgasse 1-3",
    "zip": "1120",
    "city": "Wien",
    "street": "Rosasgasse",
    "housenumber": "1-3",
    "addressextra": "extra",
    "private": true,
    "schoolforms": [
      "HTL"
    ],
    "specialisations": [
      "INSY"
    ]
  },
  {
    "name": "NMS Johann-Hoffmann-Platz 19",
    "zip": "1120",
    "city": "Wien",
    "street": "Johann-Hoffmann-Platz",
    "housenumber": "19",
    "addressextra": "extra",
    "private": true,
    "schoolforms": [
      "HTL"
    ],
    "specialisations": [
      "INSY"
    ]
  },
  {
    "name": "GRg 12 Erlgasse 32-34",
    "zip": "1120",
    "city": "Wien",
    "street": "Erlgasse",
    "housenumber": "32-34",
    "addressextra": "extra",
    "private": true,
    "schoolforms": [
      "HTL"
    ],
    "specialisations": [
      "INSY"
    ]
  },
  {
    "name": "Berufsschule für Gastgewerbe",
    "zip": "1120",
    "city": "Wien",
    "street": "Längenfeldgasse",
    "housenumber": "13-15",
    "addressextra": "extra",
    "private": true,
    "schoolforms": [
      "HTL"
    ],
    "specialisations": [
      "INSY"
    ]
  },
  {
    "name": "Privatschule INFINUM ORG",
    "zip": "1120",
    "city": "Wien",
    "street": "Hetzendorferstraße",
    "housenumber": "77",
    "addressextra": "extra",
    "private": true,
    "schoolforms": [
      "HTL"
    ],
    "specialisations": [
      "INSY"
    ]
  },
  {
    "name": "NMS Singrienergasse 23",
    "zip": "1120",
    "city": "Wien",
    "street": "Singrienergasse",
    "housenumber": "23",
    "addressextra": "extra",
    "private": true,
    "schoolforms": [
      "HTL"
    ],
    "specialisations": [
      "INSY"
    ]
  },
  {
    "name": "Berufsschule für Industrie, Finanzen und Transport",
    "zip": "1120",
    "city": "Wien",
    "street": "Längenfeldgasse",
    "housenumber": "13-15",
    "addressextra": "extra",
    "private": true,
    "schoolforms": [
      "HTL"
    ],
    "specialisations": [
      "INSY"
    ]
  },
  {
    "name": "NMS Hermann-Broch-Gasse 2",
    "zip": "1120",
    "city": "Wien",
    "street": "Hermann-Broch-Gasse",
    "housenumber": "2",
    "addressextra": "extra",
    "private": true,
    "schoolforms": [
      "HTL"
    ],
    "specialisations": [
      "INSY"
    ]
  },
  {
    "name": "NMS Am Schöpfwerk 27",
    "zip": "1120",
    "city": "Wien",
    "street": "Am Schöpfwerk",
    "housenumber": "27",
    "addressextra": "extra",
    "private": true,
    "schoolforms": [
      "HTL"
    ],
    "specialisations": [
      "INSY"
    ]
  },
  {
    "name": "NMS Steinbauergasse 27",
    "zip": "1120",
    "city": "Wien",
    "street": "Steinbauergasse",
    "housenumber": "27",
    "addressextra": "extra",
    "private": true,
    "schoolforms": [
      "HTL"
    ],
    "specialisations": [
      "INSY"
    ]
  },
  {
    "name": "Lehranstalt für systemische Familientherapie der Erzdiözese Wien für Berufstätige",
    "zip": "1130",
    "city": "Wien",
    "street": "Trauttmansdorffgasse",
    "housenumber": "3a",
    "addressextra": "extra",
    "private": true,
    "schoolforms": [
      "HTL"
    ],
    "specialisations": [
      "INSY"
    ]
  },
  {
    "name": "Fachschule und Aufbaulehrgang für wirtschaftliche Berufe des Schulvereins der Dominikanerinnen",
    "zip": "1130",
    "city": "Wien",
    "street": "Auhofstraße",
    "housenumber": "177",
    "addressextra": "extra",
    "private": true,
    "schoolforms": [
      "HTL"
    ],
    "specialisations": [
      "INSY"
    ]
  },
  {
    "name": "Bundeshandelsakademie und Bundeshandelsschule Wien 13 - Schumpeter Handelsakademie",
    "zip": "1130",
    "city": "Wien",
    "street": "Maygasse",
    "housenumber": "43",
    "addressextra": "extra",
    "private": true,
    "schoolforms": [
      "HTL"
    ],
    "specialisations": [
      "INSY"
    ]
  },
  {
    "name": "Höhere Bundeslehranstalt für Tourismus und für wirtschaftliche Berufe Wien 13",
    "zip": "1130",
    "city": "Wien",
    "street": "Bergheidengasse",
    "housenumber": "5-19",
    "addressextra": "extra",
    "private": true,
    "schoolforms": [
      "HTL"
    ],
    "specialisations": [
      "INSY"
    ]
  },
  {
    "name": "Speziallehrgang für Leitungsfunktionen in der Sozialarbeit der Caritas der Erzdiözese Wien",
    "zip": "1130",
    "city": "Wien",
    "street": "Kardinal-König-Platz",
    "housenumber": "3",
    "addressextra": "extra",
    "private": true,
    "schoolforms": [
      "HTL"
    ],
    "specialisations": [
      "INSY"
    ]
  },
  {
    "name": "HBLFA Grünbergstraße 24",
    "zip": "1130",
    "city": "Wien",
    "street": "Grünbergstraße",
    "housenumber": "24",
    "addressextra": "extra",
    "private": true,
    "schoolforms": [
      "HTL"
    ],
    "specialisations": [
      "INSY"
    ]
  },
  {
    "name": "BSH 13 Himmelhofgasse 17-19",
    "zip": "1130",
    "city": "Wien",
    "street": "Himmelhofgasse",
    "housenumber": "17-19",
    "addressextra": "extra",
    "private": true,
    "schoolforms": [
      "HTL"
    ],
    "specialisations": [
      "INSY"
    ]
  },
  {
    "name": "pORg 13 Auhofstraße 78 e-f",
    "zip": "1130",
    "city": "Wien",
    "street": "Auhofstraße 78",
    "housenumber": "e-f",
    "addressextra": "extra",
    "private": true,
    "schoolforms": [
      "HTL"
    ],
    "specialisations": [
      "INSY"
    ]
  },
  {
    "name": "Berufsschule der SPAR österreichische Warenhandels-AG - Private Spar Akademie Wien",
    "zip": "1130",
    "city": "Wien",
    "street": "Hietzinger Hauptstraße",
    "housenumber": "17",
    "addressextra": "extra",
    "private": true,
    "schoolforms": [
      "HTL"
    ],
    "specialisations": [
      "INSY"
    ]
  },
  {
    "name": "G 13 Fichtnergasse 15",
    "zip": "1130",
    "city": "Wien",
    "street": "Fichtnergasse",
    "housenumber": "15",
    "addressextra": "extra",
    "private": true,
    "schoolforms": [
      "HTL"
    ],
    "specialisations": [
      "INSY"
    ]
  },
  {
    "name": "Berufsschule für Einzelhandel",
    "zip": "1130",
    "city": "Wien",
    "street": "Amalienstraße",
    "housenumber": "31-33",
    "addressextra": "extra",
    "private": true,
    "schoolforms": [
      "HTL"
    ],
    "specialisations": [
      "INSY"
    ]
  },
  {
    "name": "GRg 13 Wenzgasse 7",
    "zip": "1130",
    "city": "Wien",
    "street": "Wenzgasse",
    "housenumber": "7",
    "addressextra": "extra",
    "private": true,
    "schoolforms": [
      "HTL"
    ],
    "specialisations": [
      "INSY"
    ]
  },
  {
    "name": "PNMS  Schloßberggasse 17",
    "zip": "1130",
    "city": "Wien",
    "street": "Schloßberggasse",
    "housenumber": "17",
    "addressextra": "extra",
    "private": true,
    "schoolforms": [
      "HTL"
    ],
    "specialisations": [
      "INSY"
    ]
  },
  {
    "name": "pGRg 13 Schloßberggasse 17",
    "zip": "1130",
    "city": "Wien",
    "street": "Schloßberggasse",
    "housenumber": "17",
    "addressextra": "extra",
    "private": true,
    "schoolforms": [
      "HTL"
    ],
    "specialisations": [
      "INSY"
    ]
  },
  {
    "name": "NMS Veitingergasse 9",
    "zip": "1130",
    "city": "Wien",
    "street": "Veitingergasse",
    "housenumber": "9",
    "addressextra": "extra",
    "private": true,
    "schoolforms": [
      "HTL"
    ],
    "specialisations": [
      "INSY"
    ]
  },
  {
    "name": "Verein W@lz.Wiener Lernzentrum, Heinrich-Collin-Straße 9",
    "zip": "1140",
    "city": "Wien",
    "street": "Heinrich-Collin-Straße",
    "housenumber": "9",
    "addressextra": "extra",
    "private": true,
    "schoolforms": [
      "HTL"
    ],
    "specialisations": [
      "INSY"
    ]
  },
  {
    "name": "Berufsschule für Schönheitsberufe",
    "zip": "1140",
    "city": "Wien",
    "street": "Goldschlagstraße",
    "housenumber": "137",
    "addressextra": "extra",
    "private": true,
    "schoolforms": [
      "HTL"
    ],
    "specialisations": [
      "INSY"
    ]
  },
  {
    "name": "GRg 14 Astgasse 3",
    "zip": "1140",
    "city": "Wien",
    "street": "Astgasse",
    "housenumber": "3",
    "addressextra": "extra",
    "private": true,
    "schoolforms": [
      "HTL"
    ],
    "specialisations": [
      "INSY"
    ]
  },
  {
    "name": "NMS Torricelligasse 50",
    "zip": "1140",
    "city": "Wien",
    "street": "Torricelligasse",
    "housenumber": "50\/I",
    "addressextra": "extra",
    "private": true,
    "schoolforms": [
      "HTL"
    ],
    "specialisations": [
      "INSY"
    ]
  },
  {
    "name": "GRg 14 Linzer Straße 146",
    "zip": "1140",
    "city": "Wien",
    "street": "Linzer Straße",
    "housenumber": "146",
    "addressextra": "extra",
    "private": true,
    "schoolforms": [
      "HTL"
    ],
    "specialisations": [
      "INSY"
    ]
  },
  {
    "name": "NMS Lortzinggasse 2",
    "zip": "1140",
    "city": "Wien",
    "street": "Lortzinggasse",
    "housenumber": "2",
    "addressextra": "extra",
    "private": true,
    "schoolforms": [
      "HTL"
    ],
    "specialisations": [
      "INSY"
    ]
  },
  {
    "name": "Waldorf Campus Wien West (11.-13. Schulstufe)",
    "zip": "1140",
    "city": "Wien",
    "street": "Linzer Straße",
    "housenumber": "430",
    "addressextra": "extra",
    "private": true,
    "schoolforms": [
      "HTL"
    ],
    "specialisations": [
      "INSY"
    ]
  },
  {
    "name": "NMS Kinkplatz 21\/II",
    "zip": "1140",
    "city": "Wien",
    "street": "Torricelligasse",
    "housenumber": "50\/II",
    "addressextra": "extra",
    "private": true,
    "schoolforms": [
      "HTL"
    ],
    "specialisations": [
      "INSY"
    ]
  },
  {
    "name": "BgBRgORg 14",
    "zip": "1140",
    "city": "Wien",
    "street": "Steinbruchstraße",
    "housenumber": "33",
    "addressextra": "extra",
    "private": true,
    "schoolforms": [
      "HTL"
    ],
    "specialisations": [
      "INSY"
    ]
  },
  {
    "name": "PNMS Henckellgasse 19",
    "zip": "1140",
    "city": "Wien",
    "street": "Henckellgasse",
    "housenumber": "19",
    "addressextra": "extra",
    "private": true,
    "schoolforms": [
      "HTL"
    ],
    "specialisations": [
      "INSY"
    ]
  },
  {
    "name": "Montessori Schule - Statutschule (1. - 3. Schulstufe)",
    "zip": "1140",
    "city": "Wien",
    "street": "Hüttelbergstraße",
    "housenumber": "8",
    "addressextra": "extra",
    "private": true,
    "schoolforms": [
      "HTL"
    ],
    "specialisations": [
      "INSY"
    ]
  },
  {
    "name": "Montessori Schule - Statutschule (10. - 12. Schulstufe)",
    "zip": "1140",
    "city": "Wien",
    "street": "Linzer Straße",
    "housenumber": "430",
    "addressextra": "extra",
    "private": true,
    "schoolforms": [
      "HTL"
    ],
    "specialisations": [
      "INSY"
    ]
  },
  {
    "name": "Höhere Graphische Bundes-Lehr- und Versuchsanstalt",
    "zip": "1140",
    "city": "Wien",
    "street": "Leyserstraße",
    "housenumber": "6",
    "addressextra": "extra",
    "private": true,
    "schoolforms": [
      "HTL"
    ],
    "specialisations": [
      "INSY"
    ]
  },
  {
    "name": "Werkmeisterschule für Berufstätige des BMLV an der Vega-Payer-Weyprecht-Kaserne",
    "zip": "1140",
    "city": "Wien",
    "street": "Breitenseer Straße",
    "housenumber": "61",
    "addressextra": "extra",
    "private": true,
    "schoolforms": [
      "HTL"
    ],
    "specialisations": [
      "INSY"
    ]
  },
  {
    "name": "Musikinstitut Polyhymnia der Polyhymnia GmbH",
    "zip": "1140",
    "city": "Wien",
    "street": "Linzer Straße",
    "housenumber": "146",
    "addressextra": "extra",
    "private": true,
    "schoolforms": [
      "HTL"
    ],
    "specialisations": [
      "INSY"
    ]
  },
  {
    "name": "NMS Spallartgasse 18",
    "zip": "1140",
    "city": "Wien",
    "street": "Spallartgasse",
    "housenumber": "18",
    "addressextra": "extra",
    "private": true,
    "schoolforms": [
      "HTL"
    ],
    "specialisations": [
      "INSY"
    ]
  },
  {
    "name": "NMS Hadersdorf Hauptstraße 80",
    "zip": "1140",
    "city": "Wien",
    "street": "Hadersdorf Hauptstraße",
    "housenumber": "80",
    "addressextra": "extra",
    "private": true,
    "schoolforms": [
      "HTL"
    ],
    "specialisations": [
      "INSY"
    ]
  },
  {
    "name": "PTS Benedikt-Schellinger-Gasse 1-3",
    "zip": "1150",
    "city": "Wien",
    "street": "Benedikt-Schellinger-Gasse",
    "housenumber": "1-3",
    "addressextra": "extra",
    "private": true,
    "schoolforms": [
      "HTL"
    ],
    "specialisations": [
      "INSY"
    ]
  },
  {
    "name": "Berufsschule für Chemie, Grafik und gestaltende Berufe",
    "zip": "1150",
    "city": "Wien",
    "street": "Hütteldorfer Straße",
    "housenumber": "7-17",
    "addressextra": "extra",
    "private": true,
    "schoolforms": [
      "HTL"
    ],
    "specialisations": [
      "INSY"
    ]
  },
  {
    "name": "RgORg 15 Henriettenplatz 6",
    "zip": "1150",
    "city": "Wien",
    "street": "Henriettenplatz",
    "housenumber": "6",
    "addressextra": "extra",
    "private": true,
    "schoolforms": [
      "HTL"
    ],
    "specialisations": [
      "INSY"
    ]
  },
  {
    "name": "NMS Schweglerstraße 2-4",
    "zip": "1150",
    "city": "Wien",
    "street": "Schweglerstraße",
    "housenumber": "2-4",
    "addressextra": "extra",
    "private": true,
    "schoolforms": [
      "HTL"
    ],
    "specialisations": [
      "INSY"
    ]
  },
  {
    "name": "NMS Sechshauser Straße 71",
    "zip": "1150",
    "city": "Wien",
    "street": "Sechshauser Straße",
    "housenumber": "71",
    "addressextra": "extra",
    "private": true,
    "schoolforms": [
      "HTL"
    ],
    "specialisations": [
      "INSY"
    ]
  },
  {
    "name": "Berufsschule für Holz, Klang, Farbe und Lack",
    "zip": "1150",
    "city": "Wien",
    "street": "Hütteldorfer Straße",
    "housenumber": "7-17",
    "addressextra": "extra",
    "private": true,
    "schoolforms": [
      "HTL"
    ],
    "specialisations": [
      "INSY"
    ]
  },
  {
    "name": "pGRg 15 Friesgasse 4",
    "zip": "1150",
    "city": "Wien",
    "street": "Friesgasse",
    "housenumber": "4",
    "addressextra": "extra",
    "private": true,
    "schoolforms": [
      "HTL"
    ],
    "specialisations": [
      "INSY"
    ]
  },
  {
    "name": "PNMS Friesgasse 4",
    "zip": "1150",
    "city": "Wien",
    "street": "Friesgasse",
    "housenumber": "4",
    "addressextra": "extra",
    "private": true,
    "schoolforms": [
      "HTL"
    ],
    "specialisations": [
      "INSY"
    ]
  },
  {
    "name": "PNMS Gebrüder-Lang-Gasse 4",
    "zip": "1150",
    "city": "Wien",
    "street": "Gebrüder Lang-Gasse",
    "housenumber": "4",
    "addressextra": "extra",
    "private": true,
    "schoolforms": [
      "HTL"
    ],
    "specialisations": [
      "INSY"
    ]
  },
  {
    "name": "GRg 15 Auf der Schmelz 4",
    "zip": "1150",
    "city": "Wien",
    "street": "Auf der",
    "housenumber": "Schmelz",
    "addressextra": "extra",
    "private": true,
    "schoolforms": [
      "HTL"
    ],
    "specialisations": [
      "INSY"
    ]
  },
  {
    "name": "Berufsschule für Handel und Reisen",
    "zip": "1150",
    "city": "Wien",
    "street": "Hütteldorfer Straße",
    "housenumber": "7-17",
    "addressextra": "extra",
    "private": true,
    "schoolforms": [
      "HTL"
    ],
    "specialisations": [
      "INSY"
    ]
  },
  {
    "name": "pRg 15 Rauchfangkehrergasse 34\/6",
    "zip": "1150",
    "city": "Wien",
    "street": "Rauchfangkehrergasse",
    "housenumber": "34\/6",
    "addressextra": "extra",
    "private": true,
    "schoolforms": [
      "HTL"
    ],
    "specialisations": [
      "INSY"
    ]
  },
  {
    "name": "Berufsschule für Bürokaufleute",
    "zip": "1150",
    "city": "Wien",
    "street": "Meiselstraße",
    "housenumber": "19",
    "addressextra": "extra",
    "private": true,
    "schoolforms": [
      "HTL"
    ],
    "specialisations": [
      "INSY"
    ]
  },
  {
    "name": "Handelsakademie-Aufbaulehrgang \/ Handelsschule d. Schulverbund SSND Österreich",
    "zip": "1150",
    "city": "Wien",
    "street": "Friesgasse",
    "housenumber": "4",
    "addressextra": "extra",
    "private": true,
    "schoolforms": [
      "HTL"
    ],
    "specialisations": [
      "INSY"
    ]
  },
  {
    "name": "Vienna Konservatorium der Frau Mag. Eva Maria Schmid",
    "zip": "1150",
    "city": "Wien",
    "street": "Stiegergasse",
    "housenumber": "15-17",
    "addressextra": "extra",
    "private": true,
    "schoolforms": [
      "HTL"
    ],
    "specialisations": [
      "INSY"
    ]
  },
  {
    "name": "VMI - VIENNA MUSIC INSTITUT - PRIVATKONSERVATORIUM DES HERRN MAG. ERNST RITSCH",
    "zip": "1150",
    "city": "Wien",
    "street": "Nobilegasse",
    "housenumber": "23-25",
    "addressextra": "extra",
    "private": true,
    "schoolforms": [
      "HTL"
    ],
    "specialisations": [
      "INSY"
    ]
  },
  {
    "name": "BSPA Bundessportakademie -  Auf der Schmelz 6",
    "zip": "1150",
    "city": "Wien",
    "street": "Auf der",
    "housenumber": "Schmelz",
    "addressextra": "extra",
    "private": true,
    "schoolforms": [
      "HTL"
    ],
    "specialisations": [
      "INSY"
    ]
  },
  {
    "name": "NMS Selzergasse 25",
    "zip": "1150",
    "city": "Wien",
    "street": "Selzergasse",
    "housenumber": "25",
    "addressextra": "extra",
    "private": true,
    "schoolforms": [
      "HTL"
    ],
    "specialisations": [
      "INSY"
    ]
  },
  {
    "name": "GRg 15 Diefenbachgasse 19",
    "zip": "1150",
    "city": "Wien",
    "street": "Diefenbachgasse",
    "housenumber": "19",
    "addressextra": "extra",
    "private": true,
    "schoolforms": [
      "HTL"
    ],
    "specialisations": [
      "INSY"
    ]
  },
  {
    "name": "NMS Kauergasse 3-5",
    "zip": "1150",
    "city": "Wien",
    "street": "Kauergasse",
    "housenumber": "3-5",
    "addressextra": "extra",
    "private": true,
    "schoolforms": [
      "HTL"
    ],
    "specialisations": [
      "INSY"
    ]
  },
  {
    "name": "NMS Grundsteingasse 48",
    "zip": "1160",
    "city": "Wien",
    "street": "Grundsteingasse",
    "housenumber": "48",
    "addressextra": "extra",
    "private": true,
    "schoolforms": [
      "HTL"
    ],
    "specialisations": [
      "INSY"
    ]
  },
  {
    "name": "Rg 16 Schuhmeierplatz 7",
    "zip": "1160",
    "city": "Wien",
    "street": "Schuhmeierplatz",
    "housenumber": "7",
    "addressextra": "extra",
    "private": true,
    "schoolforms": [
      "HTL"
    ],
    "specialisations": [
      "INSY"
    ]
  },
  {
    "name": "NMS Koppstraße 110\/II",
    "zip": "1160",
    "city": "Wien",
    "street": "Koppstraße",
    "housenumber": "110\/II",
    "addressextra": "extra",
    "private": true,
    "schoolforms": [
      "HTL"
    ],
    "specialisations": [
      "INSY"
    ]
  },
  {
    "name": "GRg 16 Maroltingergasse 69-71",
    "zip": "1160",
    "city": "Wien",
    "street": "Maroltingergasse",
    "housenumber": "69-71",
    "addressextra": "extra",
    "private": true,
    "schoolforms": [
      "HTL"
    ],
    "specialisations": [
      "INSY"
    ]
  },
  {
    "name": "AHS Julius-Meinl-Gasse 2a",
    "zip": "1160",
    "city": "Wien",
    "street": "Julius-Meinl-Gasse",
    "housenumber": "2a",
    "addressextra": "extra",
    "private": true,
    "schoolforms": [
      "HTL"
    ],
    "specialisations": [
      "INSY"
    ]
  },
  {
    "name": "NMS Brüßlgasse 18",
    "zip": "1160",
    "city": "Wien",
    "street": "Brüßlgasse",
    "housenumber": "18",
    "addressextra": "extra",
    "private": true,
    "schoolforms": [
      "HTL"
    ],
    "specialisations": [
      "INSY"
    ]
  },
  {
    "name": "Berufsschule für Handel @ Administration",
    "zip": "1160",
    "city": "Wien",
    "street": "Panikengasse",
    "housenumber": "31",
    "addressextra": "extra",
    "private": true,
    "schoolforms": [
      "HTL"
    ],
    "specialisations": [
      "INSY"
    ]
  },
  {
    "name": "NMS Roterdstraße 1",
    "zip": "1160",
    "city": "Wien",
    "street": "Roterdstraße",
    "housenumber": "1",
    "addressextra": "extra",
    "private": true,
    "schoolforms": [
      "HTL"
    ],
    "specialisations": [
      "INSY"
    ]
  },
  {
    "name": "NMS Wiesberggasse 7",
    "zip": "1160",
    "city": "Wien",
    "street": "Opfermanngasse",
    "housenumber": "1",
    "addressextra": "extra",
    "private": true,
    "schoolforms": [
      "HTL"
    ],
    "specialisations": [
      "INSY"
    ]
  },
  {
    "name": "Höhere Bundeslehranstalt für Mode und künstlerische Gestaltung",
    "zip": "1160",
    "city": "Wien",
    "street": "Herbststraße",
    "housenumber": "104",
    "addressextra": "extra",
    "private": true,
    "schoolforms": [
      "HTL"
    ],
    "specialisations": [
      "INSY"
    ]
  },
  {
    "name": "Höhere Technische Bundeslehranstalt Wien West",
    "zip": "1160",
    "city": "Wien",
    "street": "Thaliastraße",
    "housenumber": "125",
    "addressextra": "extra",
    "private": true,
    "schoolforms": [
      "HTL"
    ],
    "specialisations": [
      "INSY"
    ]
  },
  {
    "name": "NMS Koppstraße 110\/I",
    "zip": "1160",
    "city": "Wien",
    "street": "Koppstraße",
    "housenumber": "110\/I",
    "addressextra": "extra",
    "private": true,
    "schoolforms": [
      "HTL"
    ],
    "specialisations": [
      "INSY"
    ]
  },
  {
    "name": "Höhere Schule im Spital (HIS) des Vereins für Individualpsychologie, Pezzlgasse 29",
    "zip": "1170",
    "city": "Wien",
    "street": "Pezzlgasse",
    "housenumber": "29",
    "addressextra": "extra",
    "private": true,
    "schoolforms": [
      "HTL"
    ],
    "specialisations": [
      "INSY"
    ]
  },
  {
    "name": "Höhere Bundes-Lehr- und Versuchsanstalt für chemische Industrie",
    "zip": "1170",
    "city": "Wien",
    "street": "Rosensteingasse",
    "housenumber": "79",
    "addressextra": "extra",
    "private": true,
    "schoolforms": [
      "HTL"
    ],
    "specialisations": [
      "INSY"
    ]
  },
  {
    "name": "Bundesschulen Kalvarienberg - Fachschulen und Aufbaulehrgang - Wirtschaft und Soziales",
    "zip": "1170",
    "city": "Wien",
    "street": "Kalvarienberggasse",
    "housenumber": "28",
    "addressextra": "extra",
    "private": true,
    "schoolforms": [
      "HTL"
    ],
    "specialisations": [
      "INSY"
    ]
  },
  {
    "name": "NMS Geblergasse 29-31",
    "zip": "1170",
    "city": "Wien",
    "street": "Geblergasse",
    "housenumber": "29-31",
    "addressextra": "extra",
    "private": true,
    "schoolforms": [
      "HTL"
    ],
    "specialisations": [
      "INSY"
    ]
  },
  {
    "name": "GRg 17 Parhamerplatz 18",
    "zip": "1170",
    "city": "Wien",
    "street": "Parhamerplatz",
    "housenumber": "18",
    "addressextra": "extra",
    "private": true,
    "schoolforms": [
      "HTL"
    ],
    "specialisations": [
      "INSY"
    ]
  },
  {
    "name": "NMS Redtenbachergasse 79",
    "zip": "1170",
    "city": "Wien",
    "street": "Redtenbachergasse",
    "housenumber": "79",
    "addressextra": "extra",
    "private": true,
    "schoolforms": [
      "HTL"
    ],
    "specialisations": [
      "INSY"
    ]
  },
  {
    "name": "GRg 17 Geblergasse 56-58",
    "zip": "1170",
    "city": "Wien",
    "street": "Geblergasse",
    "housenumber": "56-58",
    "addressextra": "extra",
    "private": true,
    "schoolforms": [
      "HTL"
    ],
    "specialisations": [
      "INSY"
    ]
  },
  {
    "name": "PTS Schopenhauerstraße 81",
    "zip": "1180",
    "city": "Wien",
    "street": "Schopenhauerstraße",
    "housenumber": "79-81",
    "addressextra": "extra",
    "private": true,
    "schoolforms": [
      "HTL"
    ],
    "specialisations": [
      "INSY"
    ]
  },
  {
    "name": "pGRg 18  Semperstraße 45",
    "zip": "1180",
    "city": "Wien",
    "street": "Semperstraße",
    "housenumber": "45",
    "addressextra": "extra",
    "private": true,
    "schoolforms": [
      "HTL"
    ],
    "specialisations": [
      "INSY"
    ]
  },
  {
    "name": "NMS Schopenhauerstraße 79",
    "zip": "1180",
    "city": "Wien",
    "street": "Schopenhauerstraße",
    "housenumber": "79",
    "addressextra": "extra",
    "private": true,
    "schoolforms": [
      "HTL"
    ],
    "specialisations": [
      "INSY"
    ]
  },
  {
    "name": "pRgORg 18 Scheidlstraße 2",
    "zip": "1180",
    "city": "Wien",
    "street": "Scheidlstraße",
    "housenumber": "2",
    "addressextra": "extra",
    "private": true,
    "schoolforms": [
      "HTL"
    ],
    "specialisations": [
      "INSY"
    ]
  },
  {
    "name": "PNMS Antonigasse 72 - Schulstiftung der Erzdiözese Wien",
    "zip": "1180",
    "city": "Wien",
    "street": "Antonigasse",
    "housenumber": "72",
    "addressextra": "extra",
    "private": true,
    "schoolforms": [
      "HTL"
    ],
    "specialisations": [
      "INSY"
    ]
  },
  {
    "name": "G 18 Klostergasse 25",
    "zip": "1180",
    "city": "Wien",
    "street": "Klostergasse",
    "housenumber": "25",
    "addressextra": "extra",
    "private": true,
    "schoolforms": [
      "HTL"
    ],
    "specialisations": [
      "INSY"
    ]
  },
  {
    "name": "Rg 18 Schopenhauerstraße 49",
    "zip": "1180",
    "city": "Wien",
    "street": "Schopenhauerstraße",
    "housenumber": "49",
    "addressextra": "extra",
    "private": true,
    "schoolforms": [
      "HTL"
    ],
    "specialisations": [
      "INSY"
    ]
  },
  {
    "name": "PNMS Schopenhauerstraße 44-46",
    "zip": "1180",
    "city": "Wien",
    "street": "Schopenhauerstraße",
    "housenumber": "44-46",
    "addressextra": "extra",
    "private": true,
    "schoolforms": [
      "HTL"
    ],
    "specialisations": [
      "INSY"
    ]
  },
  {
    "name": "GRg 18 Haizingergasse 37",
    "zip": "1180",
    "city": "Wien",
    "street": "Haizingergasse",
    "housenumber": "37",
    "addressextra": "extra",
    "private": true,
    "schoolforms": [
      "HTL"
    ],
    "specialisations": [
      "INSY"
    ]
  },
  {
    "name": "PNMS Semperstraße 45",
    "zip": "1180",
    "city": "Wien",
    "street": "Semperstraße",
    "housenumber": "45",
    "addressextra": "extra",
    "private": true,
    "schoolforms": [
      "HTL"
    ],
    "specialisations": [
      "INSY"
    ]
  },
  {
    "name": "Rudolf Steiner Schule Pötzleinsdorf",
    "zip": "1180",
    "city": "Wien",
    "street": "Geymüllergasse",
    "housenumber": "1",
    "addressextra": "extra",
    "private": true,
    "schoolforms": [
      "HTL"
    ],
    "specialisations": [
      "INSY"
    ]
  },
  {
    "name": "Private NMS der Frau Dr. Sigrid Schauberger",
    "zip": "1180",
    "city": "Wien",
    "street": "Paulinengasse",
    "housenumber": "16",
    "addressextra": "extra",
    "private": true,
    "schoolforms": [
      "HTL"
    ],
    "specialisations": [
      "INSY"
    ]
  },
  {
    "name": "AMADEUS International School VIENNA",
    "zip": "1180",
    "city": "Wien",
    "street": "Bastiengasse 36",
    "housenumber": "-",
    "addressextra": "extra",
    "private": true,
    "schoolforms": [
      "HTL"
    ],
    "specialisations": [
      "INSY"
    ]
  },
  {
    "name": "pORg 18, VES - Vienna European School",
    "zip": "1180",
    "city": "Wien",
    "street": "Paulinengasse",
    "housenumber": "16a",
    "addressextra": "extra",
    "private": true,
    "schoolforms": [
      "HTL"
    ],
    "specialisations": [
      "INSY"
    ]
  },
  {
    "name": "Werbeakademie - Fachlehrgang für Marktkommunikation des WIFI der Wirtschaftskammer Wien",
    "zip": "1180",
    "city": "Wien",
    "street": "Währinger Gürtel",
    "housenumber": "97",
    "addressextra": "extra",
    "private": true,
    "schoolforms": [
      "HTL"
    ],
    "specialisations": [
      "INSY"
    ]
  },
  {
    "name": "Werkmeisterschule für Berufstätige des Wirtschaftsförderungsinstitutes der Wirtschaftskammer Wien",
    "zip": "1180",
    "city": "Wien",
    "street": "Währinger Gürtel",
    "housenumber": "97",
    "addressextra": "extra",
    "private": true,
    "schoolforms": [
      "HTL"
    ],
    "specialisations": [
      "INSY"
    ]
  },
  {
    "name": "pGRg 19 Hofzeile 22",
    "zip": "1190",
    "city": "Wien",
    "street": "Hofzeile",
    "housenumber": "22",
    "addressextra": "extra",
    "private": true,
    "schoolforms": [
      "HTL"
    ],
    "specialisations": [
      "INSY"
    ]
  },
  {
    "name": "pGRg 19 Alfred Wegener-Gasse 10-12",
    "zip": "1190",
    "city": "Wien",
    "street": "Alfred-Wegener-Gasse",
    "housenumber": "10-12",
    "addressextra": "extra",
    "private": true,
    "schoolforms": [
      "HTL"
    ],
    "specialisations": [
      "INSY"
    ]
  },
  {
    "name": "GRg 19 Billrothstraße 73",
    "zip": "1190",
    "city": "Wien",
    "street": "Billrothstraße",
    "housenumber": "73",
    "addressextra": "extra",
    "private": true,
    "schoolforms": [
      "HTL"
    ],
    "specialisations": [
      "INSY"
    ]
  },
  {
    "name": "American International School  Salmanndorferstraße 47",
    "zip": "1190",
    "city": "Wien",
    "street": "Salmannsdorfer Straße",
    "housenumber": "47",
    "addressextra": "extra",
    "private": true,
    "schoolforms": [
      "HTL"
    ],
    "specialisations": [
      "INSY"
    ]
  },
  {
    "name": "Schwedische Schule Scheibelreitergasse 15",
    "zip": "1190",
    "city": "Wien",
    "street": "Scheibelreitergasse",
    "housenumber": "15",
    "addressextra": "extra",
    "private": true,
    "schoolforms": [
      "HTL"
    ],
    "specialisations": [
      "INSY"
    ]
  },
  {
    "name": "Höhere Bundeslehranstalt für wirtschaftliche Berufe Wien 19",
    "zip": "1190",
    "city": "Wien",
    "street": "Straßergasse",
    "housenumber": "37-39",
    "addressextra": "extra",
    "private": true,
    "schoolforms": [
      "HTL"
    ],
    "specialisations": [
      "INSY"
    ]
  },
  {
    "name": "Tourismusschulen Modul der Wirtschaftskammer Wien",
    "zip": "1190",
    "city": "Wien",
    "street": "Peter-Jordan-Straße",
    "housenumber": "78",
    "addressextra": "extra",
    "private": true,
    "schoolforms": [
      "HTL"
    ],
    "specialisations": [
      "INSY"
    ]
  },
  {
    "name": "BAFEP 19 Hofzeile 17",
    "zip": "1190",
    "city": "Wien",
    "street": "Hofzeile",
    "housenumber": "17",
    "addressextra": "extra",
    "private": true,
    "schoolforms": [
      "HTL"
    ],
    "specialisations": [
      "INSY"
    ]
  },
  {
    "name": "PPTS Alfred Wegener-Gasse 10-12",
    "zip": "1190",
    "city": "Wien",
    "street": "Alfred Wegener-Gasse",
    "housenumber": "10-12",
    "addressextra": "extra",
    "private": true,
    "schoolforms": [
      "HTL"
    ],
    "specialisations": [
      "INSY"
    ]
  },
  {
    "name": "G 19 Gymnasiumstraße 83",
    "zip": "1190",
    "city": "Wien",
    "street": "Gymnasiumstraße",
    "housenumber": "83",
    "addressextra": "extra",
    "private": true,
    "schoolforms": [
      "HTL"
    ],
    "specialisations": [
      "INSY"
    ]
  },
  {
    "name": "NMS Oskar-Spiel-Gasse 3",
    "zip": "1190",
    "city": "Wien",
    "street": "Oskar-Spiel-Gasse",
    "housenumber": "3",
    "addressextra": "extra",
    "private": true,
    "schoolforms": [
      "HTL"
    ],
    "specialisations": [
      "INSY"
    ]
  },
  {
    "name": "NMS Pyrkergasse 14-16",
    "zip": "1190",
    "city": "Wien",
    "street": "Pyrkergasse",
    "housenumber": "14-16",
    "addressextra": "extra",
    "private": true,
    "schoolforms": [
      "HTL"
    ],
    "specialisations": [
      "INSY"
    ]
  },
  {
    "name": "PNMS Alfred-Wegener-Gasse 10-12",
    "zip": "1190",
    "city": "Wien",
    "street": "Alfred-Wegener-Gasse",
    "housenumber": "10-12",
    "addressextra": "extra",
    "private": true,
    "schoolforms": [
      "HTL"
    ],
    "specialisations": [
      "INSY"
    ]
  },
  {
    "name": "Rg 19 Krottenbachstraße 11-13",
    "zip": "1190",
    "city": "Wien",
    "street": "Krottenbachstraße",
    "housenumber": "11",
    "addressextra": "extra",
    "private": true,
    "schoolforms": [
      "HTL"
    ],
    "specialisations": [
      "INSY"
    ]
  },
  {
    "name": "GRg 19 Billrothstraße 26-30",
    "zip": "1190",
    "city": "Wien",
    "street": "Billrothstraße",
    "housenumber": "26-30",
    "addressextra": "extra",
    "private": true,
    "schoolforms": [
      "HTL"
    ],
    "specialisations": [
      "INSY"
    ]
  },
  {
    "name": "NMS In der Krim 6",
    "zip": "1190",
    "city": "Wien",
    "street": "In der",
    "housenumber": "Krim",
    "addressextra": "extra",
    "private": true,
    "schoolforms": [
      "HTL"
    ],
    "specialisations": [
      "INSY"
    ]
  },
  {
    "name": "NMS Greiseneckergasse 31",
    "zip": "1200",
    "city": "Wien",
    "street": "Greiseneckergasse",
    "housenumber": "31",
    "addressextra": "extra",
    "private": true,
    "schoolforms": [
      "HTL"
    ],
    "specialisations": [
      "INSY"
    ]
  },
  {
    "name": "PTS Stromstraße 44",
    "zip": "1200",
    "city": "Wien",
    "street": "Stromstraße",
    "housenumber": "44",
    "addressextra": "extra",
    "private": true,
    "schoolforms": [
      "HTL"
    ],
    "specialisations": [
      "INSY"
    ]
  },
  {
    "name": "BOL Adalbert-Stifter-Straße 14-18",
    "zip": "1200",
    "city": "Wien",
    "street": "Adalbert-Stifter-Straße",
    "housenumber": "14-18",
    "addressextra": "extra",
    "private": true,
    "schoolforms": [
      "HTL"
    ],
    "specialisations": [
      "INSY"
    ]
  },
  {
    "name": "NMS Pöchlarnstraße 14",
    "zip": "1200",
    "city": "Wien",
    "street": "Pöchlarnstraße",
    "housenumber": "14",
    "addressextra": "extra",
    "private": true,
    "schoolforms": [
      "HTL"
    ],
    "specialisations": [
      "INSY"
    ]
  },
  {
    "name": "NMS Staudingergasse 6",
    "zip": "1200",
    "city": "Wien",
    "street": "Staudingergasse",
    "housenumber": "6",
    "addressextra": "extra",
    "private": true,
    "schoolforms": [
      "HTL"
    ],
    "specialisations": [
      "INSY"
    ]
  },
  {
    "name": "NMS Stromstraße 40",
    "zip": "1200",
    "city": "Wien",
    "street": "Stromstraße",
    "housenumber": "40",
    "addressextra": "extra",
    "private": true,
    "schoolforms": [
      "HTL"
    ],
    "specialisations": [
      "INSY"
    ]
  },
  {
    "name": "TGM Höhere Technische Bundes Lehr- und Versuchsanstalt Wien 20",
    "zip": "1200",
    "city": "Wien",
    "street": "Wexstraße",
    "housenumber": "19-31",
    "addressextra": "extra",
    "private": true,
    "schoolforms": [
      "HTL"
    ],
    "specialisations": [
      "INSY"
    ]
  },
  {
    "name": "WMS Leipziger Platz 1",
    "zip": "1200",
    "city": "Wien",
    "street": "Leipziger Platz",
    "housenumber": "1",
    "addressextra": "extra",
    "private": true,
    "schoolforms": [
      "HTL"
    ],
    "specialisations": [
      "INSY"
    ]
  },
  {
    "name": "GRgORg 20 Karajangasse 14",
    "zip": "1200",
    "city": "Wien",
    "street": "Karajangasse",
    "housenumber": "14",
    "addressextra": "extra",
    "private": true,
    "schoolforms": [
      "HTL"
    ],
    "specialisations": [
      "INSY"
    ]
  },
  {
    "name": "Berufsschule für Kraftfahrzeugtechnik",
    "zip": "1210",
    "city": "Wien",
    "street": "Scheydgasse",
    "housenumber": "40",
    "addressextra": "extra",
    "private": true,
    "schoolforms": [
      "HTL"
    ],
    "specialisations": [
      "INSY"
    ]
  },
  {
    "name": "GRg 21 Franklinstraße 21",
    "zip": "1210",
    "city": "Wien",
    "street": "Franklinstraße",
    "housenumber": "21",
    "addressextra": "extra",
    "private": true,
    "schoolforms": [
      "HTL"
    ],
    "specialisations": [
      "INSY"
    ]
  },
  {
    "name": "NMS Regnerweg 6",
    "zip": "1210",
    "city": "Wien",
    "street": "Regnerweg",
    "housenumber": "6",
    "addressextra": "extra",
    "private": true,
    "schoolforms": [
      "HTL"
    ],
    "specialisations": [
      "INSY"
    ]
  },
  {
    "name": "GRg 21 Franklinstraße 26",
    "zip": "1210",
    "city": "Wien",
    "street": "Franklinstraße",
    "housenumber": "26",
    "addressextra": "extra",
    "private": true,
    "schoolforms": [
      "HTL"
    ],
    "specialisations": [
      "INSY"
    ]
  },
  {
    "name": "NMS Kinzerplatz 9",
    "zip": "1210",
    "city": "Wien",
    "street": "Kinzerplatz",
    "housenumber": "9",
    "addressextra": "extra",
    "private": true,
    "schoolforms": [
      "HTL"
    ],
    "specialisations": [
      "INSY"
    ]
  },
  {
    "name": "GRg 21 Ödenburger Straße 74",
    "zip": "1210",
    "city": "Wien",
    "street": "Ödenburger Straße",
    "housenumber": "74",
    "addressextra": "extra",
    "private": true,
    "schoolforms": [
      "HTL"
    ],
    "specialisations": [
      "INSY"
    ]
  },
  {
    "name": "GRg 21 Donauinselplatz 1",
    "zip": "1210",
    "city": "Wien",
    "street": "Donauinselplatz",
    "housenumber": "1",
    "addressextra": "extra",
    "private": true,
    "schoolforms": [
      "HTL"
    ],
    "specialisations": [
      "INSY"
    ]
  },
  {
    "name": "NMS Pastorstraße 29",
    "zip": "1210",
    "city": "Wien",
    "street": "Pastorstraße",
    "housenumber": "29",
    "addressextra": "extra",
    "private": true,
    "schoolforms": [
      "HTL"
    ],
    "specialisations": [
      "INSY"
    ]
  },
  {
    "name": "GRgORg 21 Gerasdorfer Straße 103",
    "zip": "1210",
    "city": "Wien",
    "street": "Gerasdorfer Straße",
    "housenumber": "103",
    "addressextra": "extra",
    "private": true,
    "schoolforms": [
      "HTL"
    ],
    "specialisations": [
      "INSY"
    ]
  },
  {
    "name": "NMS Reisgasse 1",
    "zip": "1210",
    "city": "Wien",
    "street": "Reisgasse",
    "housenumber": "1",
    "addressextra": "extra",
    "private": true,
    "schoolforms": [
      "HTL"
    ],
    "specialisations": [
      "INSY"
    ]
  },
  {
    "name": "PNMS Anton-Böck-Gasse 20",
    "zip": "1210",
    "city": "Wien",
    "street": "Anton-Böck-Gasse",
    "housenumber": "20",
    "addressextra": "extra",
    "private": true,
    "schoolforms": [
      "HTL"
    ],
    "specialisations": [
      "INSY"
    ]
  },
  {
    "name": "pORg 21 Nordbahnanlage 4",
    "zip": "1210",
    "city": "Wien",
    "street": "Nordbahnanlage",
    "housenumber": "4",
    "addressextra": "extra",
    "private": true,
    "schoolforms": [
      "HTL"
    ],
    "specialisations": [
      "INSY"
    ]
  },
  {
    "name": "PNMS Mayerweckstraße 1",
    "zip": "1210",
    "city": "Wien",
    "street": "Mayerweckstraße",
    "housenumber": "1",
    "addressextra": "extra",
    "private": true,
    "schoolforms": [
      "HTL"
    ],
    "specialisations": [
      "INSY"
    ]
  },
  {
    "name": "Bundesgymnasium für Berufstätige",
    "zip": "1210",
    "city": "Wien",
    "street": "Brünner Straße",
    "housenumber": "72",
    "addressextra": "extra",
    "private": true,
    "schoolforms": [
      "HTL"
    ],
    "specialisations": [
      "INSY"
    ]
  },
  {
    "name": "Privates Realgymnasium Avicenna (Ibn Sina)",
    "zip": "1210",
    "city": "Wien",
    "street": "Prager Straße",
    "housenumber": "124",
    "addressextra": "extra",
    "private": true,
    "schoolforms": [
      "HTL"
    ],
    "specialisations": [
      "INSY"
    ]
  },
  {
    "name": "NMS Jochbergengasse 1",
    "zip": "1210",
    "city": "Wien",
    "street": "Jochbergengasse",
    "housenumber": "1",
    "addressextra": "extra",
    "private": true,
    "schoolforms": [
      "HTL"
    ],
    "specialisations": [
      "INSY"
    ]
  },
  {
    "name": "NMS Adolf-Loos-Gasse 2",
    "zip": "1210",
    "city": "Wien",
    "street": "Adolf-Loos-Gasse",
    "housenumber": "2",
    "addressextra": "extra",
    "private": true,
    "schoolforms": [
      "HTL"
    ],
    "specialisations": [
      "INSY"
    ]
  },
  {
    "name": "PNMS Weisselgasse 28",
    "zip": "1210",
    "city": "Wien",
    "street": "Weisselgasse",
    "housenumber": "28",
    "addressextra": "extra",
    "private": true,
    "schoolforms": [
      "HTL"
    ],
    "specialisations": [
      "INSY"
    ]
  },
  {
    "name": "Privatschule für instinktives Lernen",
    "zip": "1210",
    "city": "Wien",
    "street": "Galvanigasse",
    "housenumber": "15-17",
    "addressextra": "extra",
    "private": true,
    "schoolforms": [
      "HTL"
    ],
    "specialisations": [
      "INSY"
    ]
  },
  {
    "name": "Höhere Bundeslehranstalt für Tourismus und wirtschaftliche Berufe",
    "zip": "1210",
    "city": "Wien",
    "street": "Wassermanngasse",
    "housenumber": "12",
    "addressextra": "extra",
    "private": true,
    "schoolforms": [
      "HTL"
    ],
    "specialisations": [
      "INSY"
    ]
  },
  {
    "name": "Tierpflegerschule des Fonds zur Förderung der Tierpflegerausbildung",
    "zip": "1210",
    "city": "Wien",
    "street": "Veterinärplatz",
    "housenumber": "1",
    "addressextra": "extra",
    "private": true,
    "schoolforms": [
      "HTL"
    ],
    "specialisations": [
      "INSY"
    ]
  },
  {
    "name": "BAFEP 21 Bildungsanstalt für Elementarpädagogik des Vereins \"Schulverein De La Salle\"",
    "zip": "1210",
    "city": "Wien",
    "street": "Anton-Böck-Gasse",
    "housenumber": "20",
    "addressextra": "extra",
    "private": true,
    "schoolforms": [
      "HTL"
    ],
    "specialisations": [
      "INSY"
    ]
  },
  {
    "name": "BAFEP 21 Patrizigasse 2",
    "zip": "1210",
    "city": "Wien",
    "street": "Patrizigasse",
    "housenumber": "2",
    "addressextra": "extra",
    "private": true,
    "schoolforms": [
      "HTL"
    ],
    "specialisations": [
      "INSY"
    ]
  },
  {
    "name": "Kolleg für Sozialpädagogik für Berufstätige",
    "zip": "1210",
    "city": "Wien",
    "street": "Schlosshofer Straße",
    "housenumber": "4",
    "addressextra": "extra",
    "private": true,
    "schoolforms": [
      "HTL"
    ],
    "specialisations": [
      "INSY"
    ]
  },
  {
    "name": "NMS Rudolf-Schön-Weg 1",
    "zip": "1210",
    "city": "Wien",
    "street": "Rudolf-Schön-Weg",
    "housenumber": "1",
    "addressextra": "extra",
    "private": true,
    "schoolforms": [
      "HTL"
    ],
    "specialisations": [
      "INSY"
    ]
  },
  {
    "name": "pGRgORg 21 Anton-Böck-Gasse 37",
    "zip": "1210",
    "city": "Wien",
    "street": "Anton Böck",
    "housenumber": "-",
    "addressextra": "extra",
    "private": true,
    "schoolforms": [
      "HTL"
    ],
    "specialisations": [
      "INSY"
    ]
  },
  {
    "name": "NMS Deublergasse 21",
    "zip": "1210",
    "city": "Wien",
    "street": "Deublergasse",
    "housenumber": "21",
    "addressextra": "extra",
    "private": true,
    "schoolforms": [
      "HTL"
    ],
    "specialisations": [
      "INSY"
    ]
  },
  {
    "name": "NMS Aderklaaer Straße 2",
    "zip": "1210",
    "city": "Wien",
    "street": "Aderklaaer Straße",
    "housenumber": "2",
    "addressextra": "extra",
    "private": true,
    "schoolforms": [
      "HTL"
    ],
    "specialisations": [
      "INSY"
    ]
  },
  {
    "name": "NMS Roda-Roda-Gasse 3",
    "zip": "1210",
    "city": "Wien",
    "street": "Roda-Roda-Gasse",
    "housenumber": "3",
    "addressextra": "extra",
    "private": true,
    "schoolforms": [
      "HTL"
    ],
    "specialisations": [
      "INSY"
    ]
  },
  {
    "name": "NMS Hanreitergasse 2",
    "zip": "1210",
    "city": "Wien",
    "street": "Hanreitergasse",
    "housenumber": "2",
    "addressextra": "extra",
    "private": true,
    "schoolforms": [
      "HTL"
    ],
    "specialisations": [
      "INSY"
    ]
  },
  {
    "name": "NMS Anton-Sattler-Gasse 93",
    "zip": "1220",
    "city": "Wien",
    "street": "Anton-Sattler-Gasse",
    "housenumber": "93",
    "addressextra": "extra",
    "private": true,
    "schoolforms": [
      "HTL"
    ],
    "specialisations": [
      "INSY"
    ]
  },
  {
    "name": "PTS Wintzingerodestraße 1-3",
    "zip": "1220",
    "city": "Wien",
    "street": "Wintzingerodestraße",
    "housenumber": "1-3",
    "addressextra": "extra",
    "private": true,
    "schoolforms": [
      "HTL"
    ],
    "specialisations": [
      "INSY"
    ]
  },
  {
    "name": "Berufsschule für Baugewerbe",
    "zip": "1220",
    "city": "Wien",
    "street": "Wagramer Straße",
    "housenumber": "65",
    "addressextra": "extra",
    "private": true,
    "schoolforms": [
      "HTL"
    ],
    "specialisations": [
      "INSY"
    ]
  },
  {
    "name": "GRg 22 Bernoullistraße 3",
    "zip": "1220",
    "city": "Wien",
    "street": "Bernoullistraße",
    "housenumber": "3",
    "addressextra": "extra",
    "private": true,
    "schoolforms": [
      "HTL"
    ],
    "specialisations": [
      "INSY"
    ]
  },
  {
    "name": "Berufsschule für Gartenbau und Floristik",
    "zip": "1220",
    "city": "Wien",
    "street": "Donizettiweg",
    "housenumber": "31",
    "addressextra": "extra",
    "private": true,
    "schoolforms": [
      "HTL"
    ],
    "specialisations": [
      "INSY"
    ]
  },
  {
    "name": "GRgORg 22 Polgarstraße 24",
    "zip": "1220",
    "city": "Wien",
    "street": "Polgarstraße",
    "housenumber": "24",
    "addressextra": "extra",
    "private": true,
    "schoolforms": [
      "HTL"
    ],
    "specialisations": [
      "INSY"
    ]
  },
  {
    "name": "NMS Konstanziagasse 50",
    "zip": "1220",
    "city": "Wien",
    "street": "Konstanziagasse",
    "housenumber": "50",
    "addressextra": "extra",
    "private": true,
    "schoolforms": [
      "HTL"
    ],
    "specialisations": [
      "INSY"
    ]
  },
  {
    "name": "VIS Straße der Menschenrechte 1",
    "zip": "1220",
    "city": "Wien",
    "street": "Straße der",
    "housenumber": "Menschenrechte",
    "addressextra": "extra",
    "private": true,
    "schoolforms": [
      "HTL"
    ],
    "specialisations": [
      "INSY"
    ]
  },
  {
    "name": "GRg 22 Theodor Kramer-Straße 3",
    "zip": "1220",
    "city": "Wien",
    "street": "Theodor Kramer-Straße",
    "housenumber": "3",
    "addressextra": "extra",
    "private": true,
    "schoolforms": [
      "HTL"
    ],
    "specialisations": [
      "INSY"
    ]
  },
  {
    "name": "NMS Plankenmaisstraße 30",
    "zip": "1220",
    "city": "Wien",
    "street": "Plankenmaisstraße",
    "housenumber": "30",
    "addressextra": "extra",
    "private": true,
    "schoolforms": [
      "HTL"
    ],
    "specialisations": [
      "INSY"
    ]
  },
  {
    "name": "GRg 22 Heustadelgasse 4",
    "zip": "1220",
    "city": "Wien",
    "street": "Heustadelgasse",
    "housenumber": "4",
    "addressextra": "extra",
    "private": true,
    "schoolforms": [
      "HTL"
    ],
    "specialisations": [
      "INSY"
    ]
  },
  {
    "name": "GRg 22 Contiweg 1",
    "zip": "1220",
    "city": "Wien",
    "street": "Contiweg",
    "housenumber": "1",
    "addressextra": "extra",
    "private": true,
    "schoolforms": [
      "HTL"
    ],
    "specialisations": [
      "INSY"
    ]
  },
  {
    "name": "pRgORg 22 Maculangasse 2",
    "zip": "1220",
    "city": "Wien",
    "street": "Maculangasse",
    "housenumber": "2",
    "addressextra": "extra",
    "private": true,
    "schoolforms": [
      "HTL"
    ],
    "specialisations": [
      "INSY"
    ]
  },
  {
    "name": "BgBRg Maria-Trapp-Platz 5",
    "zip": "1220",
    "city": "Wien",
    "street": "Maria-Trapp-Platz",
    "housenumber": "5",
    "addressextra": "extra",
    "private": true,
    "schoolforms": [
      "HTL"
    ],
    "specialisations": [
      "INSY"
    ]
  },
  {
    "name": "NMS Afritschgasse 56",
    "zip": "1220",
    "city": "Wien",
    "street": "Afritschgasse",
    "housenumber": "56",
    "addressextra": "extra",
    "private": true,
    "schoolforms": [
      "HTL"
    ],
    "specialisations": [
      "INSY"
    ]
  },
  {
    "name": "NMS Mira-Lobe-Weg 4",
    "zip": "1220",
    "city": "Wien",
    "street": "Mira-Lobe-Weg",
    "housenumber": "4",
    "addressextra": "extra",
    "private": true,
    "schoolforms": [
      "HTL"
    ],
    "specialisations": [
      "INSY"
    ]
  },
  {
    "name": "PNMS Jüptnergasse 4",
    "zip": "1220",
    "city": "Wien",
    "street": "Jüptnergasse",
    "housenumber": "4-8",
    "addressextra": "extra",
    "private": true,
    "schoolforms": [
      "HTL"
    ],
    "specialisations": [
      "INSY"
    ]
  },
  {
    "name": "Japanische Internationale Schule in Wien",
    "zip": "1220",
    "city": "Wien",
    "street": "Prandaugasse",
    "housenumber": "2",
    "addressextra": "extra",
    "private": true,
    "schoolforms": [
      "HTL"
    ],
    "specialisations": [
      "INSY"
    ]
  },
  {
    "name": "International Christian School of Vienna, Wagramer Straße 175",
    "zip": "1220",
    "city": "Wien",
    "street": "Wagramer Straße",
    "housenumber": "175",
    "addressextra": "extra",
    "private": true,
    "schoolforms": [
      "HTL"
    ],
    "specialisations": [
      "INSY"
    ]
  },
  {
    "name": "Bundeshandelsakademie und Bundeshandelsschule Wien 22",
    "zip": "1220",
    "city": "Wien",
    "street": "Polgarstraße",
    "housenumber": "24",
    "addressextra": "extra",
    "private": true,
    "schoolforms": [
      "HTL"
    ],
    "specialisations": [
      "INSY"
    ]
  },
  {
    "name": "Hertha Firnberg Schulen für Wirtschaft und Tourismus",
    "zip": "1220",
    "city": "Wien",
    "street": "Firnbergplatz",
    "housenumber": "1",
    "addressextra": "extra",
    "private": true,
    "schoolforms": [
      "HTL"
    ],
    "specialisations": [
      "INSY"
    ]
  },
  {
    "name": "Höhere Technische Bundeslehranstalt Donaustadt",
    "zip": "1220",
    "city": "Wien",
    "street": "Donaustadtstraße",
    "housenumber": "45",
    "addressextra": "extra",
    "private": true,
    "schoolforms": [
      "HTL"
    ],
    "specialisations": [
      "INSY"
    ]
  },
  {
    "name": "NMS Prinzgasse 3",
    "zip": "1220",
    "city": "Wien",
    "street": "Prinzgasse",
    "housenumber": "3",
    "addressextra": "extra",
    "private": true,
    "schoolforms": [
      "HTL"
    ],
    "specialisations": [
      "INSY"
    ]
  },
  {
    "name": "NMS Eibengasse 58",
    "zip": "1220",
    "city": "Wien",
    "street": "Eibengasse",
    "housenumber": "58",
    "addressextra": "extra",
    "private": true,
    "schoolforms": [
      "HTL"
    ],
    "specialisations": [
      "INSY"
    ]
  },
  {
    "name": "NMS Am Kaisermühlendamm 2",
    "zip": "1220",
    "city": "Wien",
    "street": "Am Kaisermühlendamm",
    "housenumber": "2",
    "addressextra": "extra",
    "private": true,
    "schoolforms": [
      "HTL"
    ],
    "specialisations": [
      "INSY"
    ]
  },
  {
    "name": "NMS Steinergasse 25",
    "zip": "1230",
    "city": "Wien",
    "street": "Steinergasse",
    "housenumber": "25",
    "addressextra": "extra",
    "private": true,
    "schoolforms": [
      "HTL"
    ],
    "specialisations": [
      "INSY"
    ]
  },
  {
    "name": "Berufsschule für Reinigungstechnik der Gebäudereinigungsakademie der Wiener Gebäudereiniger SchulungsGmbH",
    "zip": "1230",
    "city": "Wien",
    "street": "Eduard-Kittenberg-Gasse 56",
    "housenumber": "Objekt",
    "addressextra": "extra",
    "private": true,
    "schoolforms": [
      "HTL"
    ],
    "specialisations": [
      "INSY"
    ]
  },
  {
    "name": "PTS Anton Baumgartner-Straße 44",
    "zip": "1230",
    "city": "Wien",
    "street": "Anton Baumgartner-Straße",
    "housenumber": "44",
    "addressextra": "extra",
    "private": true,
    "schoolforms": [
      "HTL"
    ],
    "specialisations": [
      "INSY"
    ]
  },
  {
    "name": "pGRg 23 Promenadeweg 3",
    "zip": "1230",
    "city": "Wien",
    "street": "Promenadeweg",
    "housenumber": "3",
    "addressextra": "extra",
    "private": true,
    "schoolforms": [
      "HTL"
    ],
    "specialisations": [
      "INSY"
    ]
  },
  {
    "name": "PSO Kanitzgasse 1-3",
    "zip": "1230",
    "city": "Wien",
    "street": "Kanitzgasse",
    "housenumber": "1-3",
    "addressextra": "extra",
    "private": true,
    "schoolforms": [
      "HTL"
    ],
    "specialisations": [
      "INSY"
    ]
  },
  {
    "name": "pGORg 23 Franz Asenbauer Gasse 49",
    "zip": "1230",
    "city": "Wien",
    "street": "Franz-Asenbauer-Gasse",
    "housenumber": "49",
    "addressextra": "extra",
    "private": true,
    "schoolforms": [
      "HTL"
    ],
    "specialisations": [
      "INSY"
    ]
  },
  {
    "name": "NMS Bendagasse 1-2",
    "zip": "1230",
    "city": "Wien",
    "street": "Bendagasse",
    "housenumber": "1-2",
    "addressextra": "extra",
    "private": true,
    "schoolforms": [
      "HTL"
    ],
    "specialisations": [
      "INSY"
    ]
  },
  {
    "name": "PNMS Willergasse 55",
    "zip": "1230",
    "city": "Wien",
    "street": "Willergasse",
    "housenumber": "55",
    "addressextra": "extra",
    "private": true,
    "schoolforms": [
      "HTL"
    ],
    "specialisations": [
      "INSY"
    ]
  },
  {
    "name": "GRg 23 Anton-Baumgartner-Straße 123",
    "zip": "1230",
    "city": "Wien",
    "street": "Anton Baumgartner-Straße",
    "housenumber": "123",
    "addressextra": "extra",
    "private": true,
    "schoolforms": [
      "HTL"
    ],
    "specialisations": [
      "INSY"
    ]
  },
  {
    "name": "PNMS Franz-Asenbauer-Gasse 49",
    "zip": "1230",
    "city": "Wien",
    "street": "Franz-Asenbauer-Gasse",
    "housenumber": "49",
    "addressextra": "extra",
    "private": true,
    "schoolforms": [
      "HTL"
    ],
    "specialisations": [
      "INSY"
    ]
  },
  {
    "name": "Höhere Lehranstalt für wirtschaftliche Berufe - Institut Santa Christiana",
    "zip": "1230",
    "city": "Wien",
    "street": "Willergasse",
    "housenumber": "55",
    "addressextra": "extra",
    "private": true,
    "schoolforms": [
      "HTL"
    ],
    "specialisations": [
      "INSY"
    ]
  },
  {
    "name": "Musikschule Harmony des Vereins der Freunde der Musikschule Harmony",
    "zip": "1230",
    "city": "Wien",
    "street": "Draschestraße",
    "housenumber": "90-92",
    "addressextra": "extra",
    "private": true,
    "schoolforms": [
      "HTL"
    ],
    "specialisations": [
      "INSY"
    ]
  },
  {
    "name": "GRg 23 Draschestraße 90-92",
    "zip": "1230",
    "city": "Wien",
    "street": "Draschestraße",
    "housenumber": "90-92",
    "addressextra": "extra",
    "private": true,
    "schoolforms": [
      "HTL"
    ],
    "specialisations": [
      "INSY"
    ]
  },
  {
    "name": "NMS Dirmhirngasse 138",
    "zip": "1230",
    "city": "Wien",
    "street": "Dirmhirngasse",
    "housenumber": "138",
    "addressextra": "extra",
    "private": true,
    "schoolforms": [
      "HTL"
    ],
    "specialisations": [
      "INSY"
    ]
  },
  {
    "name": "RgORg 23 Anton-Krieger-Gasse 25",
    "zip": "1230",
    "city": "Wien",
    "street": "Anton-Krieger-Gasse",
    "housenumber": "25",
    "addressextra": "extra",
    "private": true,
    "schoolforms": [
      "HTL"
    ],
    "specialisations": [
      "INSY"
    ]
  },
  {
    "name": "NMS Carlbergergasse 72",
    "zip": "1230",
    "city": "Wien",
    "street": "Carlbergergasse",
    "housenumber": "72",
    "addressextra": "extra",
    "private": true,
    "schoolforms": [
      "HTL"
    ],
    "specialisations": [
      "INSY"
    ]
  },
  {
    "name": "NMS Anton-Baumgartner-Straße 119",
    "zip": "1230",
    "city": "Wien",
    "street": "Anton-Baumgartner-Straße",
    "housenumber": "119",
    "addressextra": "extra",
    "private": true,
    "schoolforms": [
      "HTL"
    ],
    "specialisations": [
      "INSY"
    ]
  }
]